{
"type": "FeatureCollection",
"name": "parcelas",
"crs": { "type": "name", "properties": { "name": "urn:ogc:def:crs:OGC:1.3:CRS84" } },
"features": [
{ "type": "Feature", "properties": { "parcela": "H1", "num": 1, "lon": -103.48747043752191, "lat": 19.663164406760281, "altitud_kml": 0.0, "dist_vecino_m": 594.71927194171838, "cuadrante": "NE", "bbox_west": -103.48837043752191, "bbox_east": -103.48657043752191, "bbox_south": 19.662264406760279, "bbox_north": 19.664064406760282 }, "geometry": { "type": "Point", "coordinates": [ -103.487470437521907, 19.663164406760281 ] } },
{ "type": "Feature", "properties": { "parcela": "H2", "num": 2, "lon": -103.4916814554342, "lat": 19.659584803270061, "altitud_kml": 0.0, "dist_vecino_m": 594.71927194171838, "cuadrante": "NE", "bbox_west": -103.49258145543421, "bbox_east": -103.4907814554342, "bbox_south": 19.658684803270059, "bbox_north": 19.660484803270062 }, "geometry": { "type": "Point", "coordinates": [ -103.491681455434204, 19.659584803270061 ] } },
{ "type": "Feature", "properties": { "parcela": "H3", "num": 3, "lon": -103.495946402958, "lat": 19.64923190063498, "altitud_kml": 0.0, "dist_vecino_m": 267.22048307774349, "cuadrante": "NO", "bbox_west": -103.496846402958, "bbox_east": -103.495046402958, "bbox_south": 19.648331900634979, "bbox_north": 19.650131900634982 }, "geometry": { "type": "Point", "coordinates": [ -103.495946402957998, 19.64923190063498 ] } },
{ "type": "Feature", "properties": { "parcela": "H4", "num": 4, "lon": -103.4934247600402, "lat": 19.648927970063919, "altitud_kml": 0.0, "dist_vecino_m": 267.22048307774349, "cuadrante": "NE", "bbox_west": -103.4943247600402, "bbox_east": -103.4925247600402, "bbox_south": 19.648027970063918, "bbox_north": 19.649827970063921 }, "geometry": { "type": "Point", "coordinates": [ -103.493424760040199, 19.648927970063919 ] } },
{ "type": "Feature", "properties": { "parcela": "H5", "num": 5, "lon": -103.4905412268389, "lat": 19.647686760867551, "altitud_kml": 0.0, "dist_vecino_m": 272.57610693610559, "cuadrante": "NE", "bbox_west": -103.4914412268389, "bbox_east": -103.4896412268389, "bbox_south": 19.646786760867549, "bbox_north": 19.648586760867552 }, "geometry": { "type": "Point", "coordinates": [ -103.4905412268389, 19.647686760867551 ] } },
{ "type": "Feature", "properties": { "parcela": "H6", "num": 6, "lon": -103.4931777628067, "lat": 19.64498379789444, "altitud_kml": 0.0, "dist_vecino_m": 173.09207871085135, "cuadrante": "NE", "bbox_west": -103.4940777628067, "bbox_east": -103.49227776280669, "bbox_south": 19.644083797894439, "bbox_north": 19.645883797894442 }, "geometry": { "type": "Point", "coordinates": [ -103.493177762806695, 19.64498379789444 ] } },
{ "type": "Feature", "properties": { "parcela": "H7", "num": 7, "lon": -103.4907449690666, "lat": 19.645237819700149, "altitud_kml": 0.0, "dist_vecino_m": 195.78568095409042, "cuadrante": "NE", "bbox_west": -103.4916449690666, "bbox_east": -103.4898449690666, "bbox_south": 19.644337819700148, "bbox_north": 19.646137819700151 }, "geometry": { "type": "Point", "coordinates": [ -103.490744969066597, 19.645237819700149 ] } },
{ "type": "Feature", "properties": { "parcela": "H8", "num": 8, "lon": -103.4919779953152, "lat": 19.643915440667431, "altitud_kml": 0.0, "dist_vecino_m": 119.06385884058884, "cuadrante": "NE", "bbox_west": -103.4928779953152, "bbox_east": -103.49107799531519, "bbox_south": 19.64301544066743, "bbox_north": 19.644815440667433 }, "geometry": { "type": "Point", "coordinates": [ -103.491977995315196, 19.643915440667431 ] } },
{ "type": "Feature", "properties": { "parcela": "H9", "num": 9, "lon": -103.4923312690368, "lat": 19.642895939628691, "altitud_kml": 0.0, "dist_vecino_m": 119.06385884058884, "cuadrante": "NE", "bbox_west": -103.4932312690368, "bbox_east": -103.4914312690368, "bbox_south": 19.641995939628689, "bbox_north": 19.643795939628692 }, "geometry": { "type": "Point", "coordinates": [ -103.492331269036796, 19.642895939628691 ] } },
{ "type": "Feature", "properties": { "parcela": "H10", "num": 10, "lon": -103.49356921510579, "lat": 19.64326268753868, "altitud_kml": 0.0, "dist_vecino_m": 136.35581920589266, "cuadrante": "NO", "bbox_west": -103.4944692151058, "bbox_east": -103.49266921510579, "bbox_south": 19.642362687538679, "bbox_north": 19.644162687538682 }, "geometry": { "type": "Point", "coordinates": [ -103.493569215105794, 19.64326268753868 ] } },
{ "type": "Feature", "properties": { "parcela": "H11", "num": 11, "lon": -103.4910115238732, "lat": 19.636991437801811, "altitud_kml": 0.0, "dist_vecino_m": 589.44378090307475, "cuadrante": "NE", "bbox_west": -103.4919115238732, "bbox_east": -103.4901115238732, "bbox_south": 19.636091437801809, "bbox_north": 19.637891437801812 }, "geometry": { "type": "Point", "coordinates": [ -103.491011523873198, 19.636991437801811 ] } },
{ "type": "Feature", "properties": { "parcela": "H12", "num": 12, "lon": -103.48663754530421, "lat": 19.642326112054299, "altitud_kml": 0.0, "dist_vecino_m": 344.70014864660305, "cuadrante": "NE", "bbox_west": -103.48753754530421, "bbox_east": -103.4857375453042, "bbox_south": 19.641426112054297, "bbox_north": 19.6432261120543 }, "geometry": { "type": "Point", "coordinates": [ -103.486637545304205, 19.642326112054299 ] } },
{ "type": "Feature", "properties": { "parcela": "H13", "num": 13, "lon": -103.48595547908771, "lat": 19.639287510733531, "altitud_kml": 0.0, "dist_vecino_m": 344.70014864660305, "cuadrante": "NE", "bbox_west": -103.48685547908771, "bbox_east": -103.48505547908771, "bbox_south": 19.63838751073353, "bbox_north": 19.640187510733533 }, "geometry": { "type": "Point", "coordinates": [ -103.485955479087707, 19.639287510733531 ] } },
{ "type": "Feature", "properties": { "parcela": "H14", "num": 14, "lon": -103.4783889889258, "lat": 19.638103342604861, "altitud_kml": 0.0, "dist_vecino_m": 496.64717373514134, "cuadrante": "NE", "bbox_west": -103.4792889889258, "bbox_east": -103.4774889889258, "bbox_south": 19.63720334260486, "bbox_north": 19.639003342604862 }, "geometry": { "type": "Point", "coordinates": [ -103.478388988925801, 19.638103342604861 ] } },
{ "type": "Feature", "properties": { "parcela": "H15", "num": 15, "lon": -103.4860570044078, "lat": 19.63304594879294, "altitud_kml": 0.0, "dist_vecino_m": 606.31042762394679, "cuadrante": "NE", "bbox_west": -103.4869570044078, "bbox_east": -103.4851570044078, "bbox_south": 19.632145948792939, "bbox_north": 19.633945948792942 }, "geometry": { "type": "Point", "coordinates": [ -103.486057004407797, 19.63304594879294 ] } },
{ "type": "Feature", "properties": { "parcela": "H16", "num": 16, "lon": -103.4780586924613, "lat": 19.633638293047252, "altitud_kml": 0.0, "dist_vecino_m": 496.64717373514134, "cuadrante": "NE", "bbox_west": -103.4789586924613, "bbox_east": -103.4771586924613, "bbox_south": 19.63273829304725, "bbox_north": 19.634538293047253 }, "geometry": { "type": "Point", "coordinates": [ -103.478058692461303, 19.633638293047252 ] } },
{ "type": "Feature", "properties": { "parcela": "H17", "num": 17, "lon": -103.4740222414965, "lat": 19.64350681735759, "altitud_kml": 0.0, "dist_vecino_m": 313.31394479966633, "cuadrante": "NE", "bbox_west": -103.4749222414965, "bbox_east": -103.4731222414965, "bbox_south": 19.642606817357589, "bbox_north": 19.644406817357591 }, "geometry": { "type": "Point", "coordinates": [ -103.474022241496499, 19.64350681735759 ] } },
{ "type": "Feature", "properties": { "parcela": "H18", "num": 18, "lon": -103.47270033530479, "lat": 19.646037622400549, "altitud_kml": 0.0, "dist_vecino_m": 313.31394479966633, "cuadrante": "NE", "bbox_west": -103.47360033530479, "bbox_east": -103.47180033530479, "bbox_south": 19.645137622400547, "bbox_north": 19.64693762240055 }, "geometry": { "type": "Point", "coordinates": [ -103.472700335304793, 19.646037622400549 ] } },
{ "type": "Feature", "properties": { "parcela": "H19", "num": 19, "lon": -103.46603828655159, "lat": 19.644712420553589, "altitud_kml": 0.0, "dist_vecino_m": 313.08743661180796, "cuadrante": "NE", "bbox_west": -103.4669382865516, "bbox_east": -103.46513828655159, "bbox_south": 19.643812420553587, "bbox_north": 19.64561242055359 }, "geometry": { "type": "Point", "coordinates": [ -103.466038286551594, 19.644712420553589 ] } },
{ "type": "Feature", "properties": { "parcela": "H20", "num": 20, "lon": -103.463262682718, "lat": 19.645735642605931, "altitud_kml": 0.0, "dist_vecino_m": 313.08743661180796, "cuadrante": "NE", "bbox_west": -103.464162682718, "bbox_east": -103.46236268271799, "bbox_south": 19.64483564260593, "bbox_north": 19.646635642605933 }, "geometry": { "type": "Point", "coordinates": [ -103.463262682717996, 19.645735642605931 ] } },
{ "type": "Feature", "properties": { "parcela": "H21", "num": 21, "lon": -103.4659894961305, "lat": 19.641566684421068, "altitud_kml": 0.0, "dist_vecino_m": 349.07644608297608, "cuadrante": "NE", "bbox_west": -103.46688949613051, "bbox_east": -103.4650894961305, "bbox_south": 19.640666684421067, "bbox_north": 19.64246668442107 }, "geometry": { "type": "Point", "coordinates": [ -103.465989496130504, 19.641566684421068 ] } },
{ "type": "Feature", "properties": { "parcela": "H22", "num": 22, "lon": -103.466659499049, "lat": 19.638413245775968, "altitud_kml": 0.0, "dist_vecino_m": 356.91239719411328, "cuadrante": "NE", "bbox_west": -103.467559499049, "bbox_east": -103.465759499049, "bbox_south": 19.637513245775967, "bbox_north": 19.63931324577597 }, "geometry": { "type": "Point", "coordinates": [ -103.466659499049001, 19.638413245775968 ] } },
{ "type": "Feature", "properties": { "parcela": "H23", "num": 23, "lon": -103.46005747380489, "lat": 19.64582256330241, "altitud_kml": 0.0, "dist_vecino_m": 337.07409106844256, "cuadrante": "NE", "bbox_west": -103.4609574738049, "bbox_east": -103.45915747380489, "bbox_south": 19.644922563302408, "bbox_north": 19.646722563302411 }, "geometry": { "type": "Point", "coordinates": [ -103.460057473804895, 19.64582256330241 ] } },
{ "type": "Feature", "properties": { "parcela": "H24", "num": 24, "lon": -103.46595977240371, "lat": 19.63458571520362, "altitud_kml": 0.0, "dist_vecino_m": 411.48724198641372, "cuadrante": "NE", "bbox_west": -103.46685977240371, "bbox_east": -103.46505977240371, "bbox_south": 19.633685715203619, "bbox_north": 19.635485715203622 }, "geometry": { "type": "Point", "coordinates": [ -103.465959772403707, 19.63458571520362 ] } },
{ "type": "Feature", "properties": { "parcela": "H25", "num": 25, "lon": -103.4698151940444, "lat": 19.6352254903721, "altitud_kml": 0.0, "dist_vecino_m": 311.72659821110886, "cuadrante": "NE", "bbox_west": -103.4707151940444, "bbox_east": -103.4689151940444, "bbox_south": 19.634325490372099, "bbox_north": 19.636125490372102 }, "geometry": { "type": "Point", "coordinates": [ -103.469815194044401, 19.6352254903721 ] } },
{ "type": "Feature", "properties": { "parcela": "H26", "num": 26, "lon": -103.4725797498141, "lat": 19.637551981671901, "altitud_kml": 0.0, "dist_vecino_m": 388.72175173822922, "cuadrante": "NE", "bbox_west": -103.4734797498141, "bbox_east": -103.4716797498141, "bbox_south": 19.6366519816719, "bbox_north": 19.638451981671903 }, "geometry": { "type": "Point", "coordinates": [ -103.472579749814102, 19.637551981671901 ] } },
{ "type": "Feature", "properties": { "parcela": "H27", "num": 27, "lon": -103.47062068086331, "lat": 19.632521692521721, "altitud_kml": 0.0, "dist_vecino_m": 311.72659821110886, "cuadrante": "NE", "bbox_west": -103.47152068086331, "bbox_east": -103.4697206808633, "bbox_south": 19.631621692521719, "bbox_north": 19.633421692521722 }, "geometry": { "type": "Point", "coordinates": [ -103.470620680863306, 19.632521692521721 ] } },
{ "type": "Feature", "properties": { "parcela": "H28", "num": 28, "lon": -103.4667801634766, "lat": 19.62924958680501, "altitud_kml": 0.0, "dist_vecino_m": 525.38655657123945, "cuadrante": "NE", "bbox_west": -103.4676801634766, "bbox_east": -103.4658801634766, "bbox_south": 19.628349586805008, "bbox_north": 19.630149586805011 }, "geometry": { "type": "Point", "coordinates": [ -103.466780163476599, 19.62924958680501 ] } },
{ "type": "Feature", "properties": { "parcela": "H29", "num": 29, "lon": -103.4724550507898, "lat": 19.62595823238879, "altitud_kml": 0.0, "dist_vecino_m": 221.73076277749496, "cuadrante": "NE", "bbox_west": -103.47335505078981, "bbox_east": -103.4715550507898, "bbox_south": 19.625058232388788, "bbox_north": 19.626858232388791 }, "geometry": { "type": "Point", "coordinates": [ -103.472455050789804, 19.62595823238879 ] } },
{ "type": "Feature", "properties": { "parcela": "H30", "num": 30, "lon": -103.4673631977053, "lat": 19.624546841368819, "altitud_kml": 0.0, "dist_vecino_m": 494.61992136227161, "cuadrante": "NE", "bbox_west": -103.4682631977053, "bbox_east": -103.46646319770529, "bbox_south": 19.623646841368817, "bbox_north": 19.62544684136882 }, "geometry": { "type": "Point", "coordinates": [ -103.467363197705296, 19.624546841368819 ] } },
{ "type": "Feature", "properties": { "parcela": "H31", "num": 31, "lon": -103.4720322735746, "lat": 19.624000445643109, "altitud_kml": 0.0, "dist_vecino_m": 221.73076277749496, "cuadrante": "NE", "bbox_west": -103.4729322735746, "bbox_east": -103.4711322735746, "bbox_south": 19.623100445643107, "bbox_north": 19.62490044564311 }, "geometry": { "type": "Point", "coordinates": [ -103.472032273574598, 19.624000445643109 ] } },
{ "type": "Feature", "properties": { "parcela": "H32", "num": 32, "lon": -103.47678675088871, "lat": 19.619599983846371, "altitud_kml": 0.0, "dist_vecino_m": 338.79422812437014, "cuadrante": "SE", "bbox_west": -103.47768675088871, "bbox_east": -103.47588675088871, "bbox_south": 19.618699983846369, "bbox_north": 19.620499983846372 }, "geometry": { "type": "Point", "coordinates": [ -103.476786750888706, 19.619599983846371 ] } },
{ "type": "Feature", "properties": { "parcela": "H33", "num": 33, "lon": -103.47452938462651, "lat": 19.617421080249478, "altitud_kml": 0.0, "dist_vecino_m": 297.99087764415276, "cuadrante": "SE", "bbox_west": -103.47542938462651, "bbox_east": -103.47362938462651, "bbox_south": 19.616521080249477, "bbox_north": 19.61832108024948 }, "geometry": { "type": "Point", "coordinates": [ -103.474529384626507, 19.617421080249478 ] } },
{ "type": "Feature", "properties": { "parcela": "H34", "num": 34, "lon": -103.4717205538295, "lat": 19.617062634474859, "altitud_kml": 0.0, "dist_vecino_m": 297.99087764415276, "cuadrante": "SE", "bbox_west": -103.4726205538295, "bbox_east": -103.4708205538295, "bbox_south": 19.616162634474858, "bbox_north": 19.617962634474861 }, "geometry": { "type": "Point", "coordinates": [ -103.471720553829499, 19.617062634474859 ] } },
{ "type": "Feature", "properties": { "parcela": "H35", "num": 35, "lon": -103.4790615464518, "lat": 19.622357610638829, "altitud_kml": 0.0, "dist_vecino_m": 388.36379271872039, "cuadrante": "NE", "bbox_west": -103.4799615464518, "bbox_east": -103.4781615464518, "bbox_south": 19.621457610638828, "bbox_north": 19.623257610638831 }, "geometry": { "type": "Point", "coordinates": [ -103.479061546451803, 19.622357610638829 ] } },
{ "type": "Feature", "properties": { "parcela": "H36", "num": 36, "lon": -103.47573766025199, "lat": 19.61265718886245, "altitud_kml": 0.0, "dist_vecino_m": 268.02657638555837, "cuadrante": "SE", "bbox_west": -103.476637660252, "bbox_east": -103.47483766025199, "bbox_south": 19.611757188862448, "bbox_north": 19.613557188862451 }, "geometry": { "type": "Point", "coordinates": [ -103.475737660251994, 19.61265718886245 ] } },
{ "type": "Feature", "properties": { "parcela": "H37", "num": 37, "lon": -103.4782759946473, "lat": 19.61287910833094, "altitud_kml": 0.0, "dist_vecino_m": 268.02657638555837, "cuadrante": "SE", "bbox_west": -103.47917599464731, "bbox_east": -103.4773759946473, "bbox_south": 19.611979108330939, "bbox_north": 19.613779108330942 }, "geometry": { "type": "Point", "coordinates": [ -103.478275994647305, 19.61287910833094 ] } },
{ "type": "Feature", "properties": { "parcela": "H38", "num": 38, "lon": -103.4814391298695, "lat": 19.613511418137278, "altitud_kml": 0.0, "dist_vecino_m": 339.90760498696557, "cuadrante": "SE", "bbox_west": -103.4823391298695, "bbox_east": -103.4805391298695, "bbox_south": 19.612611418137277, "bbox_north": 19.61441141813728 }, "geometry": { "type": "Point", "coordinates": [ -103.4814391298695, 19.613511418137278 ] } },
{ "type": "Feature", "properties": { "parcela": "H39", "num": 39, "lon": -103.4846383837301, "lat": 19.617396339605062, "altitud_kml": 0.0, "dist_vecino_m": 407.69150574859327, "cuadrante": "SE", "bbox_west": -103.4855383837301, "bbox_east": -103.4837383837301, "bbox_south": 19.61649633960506, "bbox_north": 19.618296339605063 }, "geometry": { "type": "Point", "coordinates": [ -103.4846383837301, 19.617396339605062 ] } },
{ "type": "Feature", "properties": { "parcela": "H40", "num": 40, "lon": -103.48659326613959, "lat": 19.61422321757896, "altitud_kml": 0.0, "dist_vecino_m": 402.74472807336917, "cuadrante": "SE", "bbox_west": -103.48749326613959, "bbox_east": -103.48569326613959, "bbox_south": 19.613323217578959, "bbox_north": 19.615123217578962 }, "geometry": { "type": "Point", "coordinates": [ -103.486593266139593, 19.61422321757896 ] } },
{ "type": "Feature", "properties": { "parcela": "H41", "num": 41, "lon": -103.4875908955098, "lat": 19.60964441322967, "altitud_kml": 0.0, "dist_vecino_m": 174.03737064136439, "cuadrante": "SE", "bbox_west": -103.4884908955098, "bbox_east": -103.4866908955098, "bbox_south": 19.608744413229669, "bbox_north": 19.610544413229672 }, "geometry": { "type": "Point", "coordinates": [ -103.487590895509797, 19.60964441322967 ] } },
{ "type": "Feature", "properties": { "parcela": "H42", "num": 42, "lon": -103.4889001524713, "lat": 19.6171207933109, "altitud_kml": 0.0, "dist_vecino_m": 373.53692742646012, "cuadrante": "SE", "bbox_west": -103.4898001524713, "bbox_east": -103.4880001524713, "bbox_south": 19.616220793310898, "bbox_north": 19.618020793310901 }, "geometry": { "type": "Point", "coordinates": [ -103.488900152471302, 19.6171207933109 ] } },
{ "type": "Feature", "properties": { "parcela": "H43", "num": 43, "lon": -103.4926481384631, "lat": 19.614518454911551, "altitud_kml": 0.0, "dist_vecino_m": 256.66448443113222, "cuadrante": "SE", "bbox_west": -103.4935481384631, "bbox_east": -103.49174813846309, "bbox_south": 19.613618454911549, "bbox_north": 19.615418454911552 }, "geometry": { "type": "Point", "coordinates": [ -103.492648138463096, 19.614518454911551 ] } },
{ "type": "Feature", "properties": { "parcela": "H44", "num": 44, "lon": -103.4912288771512, "lat": 19.612636478923982, "altitud_kml": 0.0, "dist_vecino_m": 256.66448443113222, "cuadrante": "SE", "bbox_west": -103.4921288771512, "bbox_east": -103.4903288771512, "bbox_south": 19.61173647892398, "bbox_north": 19.613536478923983 }, "geometry": { "type": "Point", "coordinates": [ -103.491228877151201, 19.612636478923982 ] } },
{ "type": "Feature", "properties": { "parcela": "H45", "num": 45, "lon": -103.489216124793, "lat": 19.609347493598829, "altitud_kml": 0.0, "dist_vecino_m": 106.73967436742092, "cuadrante": "SE", "bbox_west": -103.490116124793, "bbox_east": -103.488316124793, "bbox_south": 19.608447493598828, "bbox_north": 19.61024749359883 }, "geometry": { "type": "Point", "coordinates": [ -103.489216124793003, 19.609347493598829 ] } },
{ "type": "Feature", "properties": { "parcela": "H46", "num": 46, "lon": -103.49022802757671, "lat": 19.609424134430039, "altitud_kml": 0.0, "dist_vecino_m": 106.73967436742092, "cuadrante": "SE", "bbox_west": -103.49112802757671, "bbox_east": -103.4893280275767, "bbox_south": 19.608524134430038, "bbox_north": 19.610324134430041 }, "geometry": { "type": "Point", "coordinates": [ -103.490228027576705, 19.609424134430039 ] } },
{ "type": "Feature", "properties": { "parcela": "H47", "num": 47, "lon": -103.4924523306077, "lat": 19.609215574427161, "altitud_kml": 0.0, "dist_vecino_m": 235.02547382184613, "cuadrante": "SE", "bbox_west": -103.49335233060771, "bbox_east": -103.4915523306077, "bbox_south": 19.608315574427159, "bbox_north": 19.610115574427162 }, "geometry": { "type": "Point", "coordinates": [ -103.492452330607705, 19.609215574427161 ] } },
{ "type": "Feature", "properties": { "parcela": "H48", "num": 48, "lon": -103.4951061797037, "lat": 19.60806269214817, "altitud_kml": 0.0, "dist_vecino_m": 306.9760163348829, "cuadrante": "SO", "bbox_west": -103.4960061797037, "bbox_east": -103.4942061797037, "bbox_south": 19.607162692148169, "bbox_north": 19.608962692148172 }, "geometry": { "type": "Point", "coordinates": [ -103.495106179703697, 19.60806269214817 ] } },
{ "type": "Feature", "properties": { "parcela": "H49", "num": 49, "lon": -103.4988105532358, "lat": 19.614982629709271, "altitud_kml": 0.0, "dist_vecino_m": 497.09750830014269, "cuadrante": "SO", "bbox_west": -103.4997105532358, "bbox_east": -103.4979105532358, "bbox_south": 19.614082629709269, "bbox_north": 19.615882629709272 }, "geometry": { "type": "Point", "coordinates": [ -103.498810553235799, 19.614982629709271 ] } },
{ "type": "Feature", "properties": { "parcela": "H50", "num": 50, "lon": -103.5061892246769, "lat": 19.61011338081553, "altitud_kml": 0.0, "dist_vecino_m": 370.32912631461704, "cuadrante": "SO", "bbox_west": -103.5070892246769, "bbox_east": -103.5052892246769, "bbox_south": 19.609213380815529, "bbox_north": 19.611013380815532 }, "geometry": { "type": "Point", "coordinates": [ -103.506189224676902, 19.61011338081553 ] } },
{ "type": "Feature", "properties": { "parcela": "H51", "num": 51, "lon": -103.5087860622131, "lat": 19.61961236528353, "altitud_kml": 0.0, "dist_vecino_m": 312.90794593093244, "cuadrante": "SO", "bbox_west": -103.50968606221311, "bbox_east": -103.5078860622131, "bbox_south": 19.618712365283528, "bbox_north": 19.620512365283531 }, "geometry": { "type": "Point", "coordinates": [ -103.508786062213105, 19.61961236528353 ] } },
{ "type": "Feature", "properties": { "parcela": "H52", "num": 52, "lon": -103.50685885713099, "lat": 19.623730741579031, "altitud_kml": 0.0, "dist_vecino_m": 219.95549115705126, "cuadrante": "NO", "bbox_west": -103.50775885713099, "bbox_east": -103.50595885713099, "bbox_south": 19.62283074157903, "bbox_north": 19.624630741579033 }, "geometry": { "type": "Point", "coordinates": [ -103.506858857130993, 19.623730741579031 ] } },
{ "type": "Feature", "properties": { "parcela": "H53", "num": 53, "lon": -103.5039156451538, "lat": 19.6220524419853, "altitud_kml": 0.0, "dist_vecino_m": 290.12350530968655, "cuadrante": "NO", "bbox_west": -103.5048156451538, "bbox_east": -103.50301564515379, "bbox_south": 19.621152441985299, "bbox_north": 19.622952441985301 }, "geometry": { "type": "Point", "coordinates": [ -103.503915645153796, 19.6220524419853 ] } },
{ "type": "Feature", "properties": { "parcela": "H54", "num": 54, "lon": -103.5012333605017, "lat": 19.621438862173999, "altitud_kml": 0.0, "dist_vecino_m": 186.34467479904043, "cuadrante": "NO", "bbox_west": -103.5021333605017, "bbox_east": -103.5003333605017, "bbox_south": 19.620538862173998, "bbox_north": 19.622338862174001 }, "geometry": { "type": "Point", "coordinates": [ -103.501233360501701, 19.621438862173999 ] } },
{ "type": "Feature", "properties": { "parcela": "H55", "num": 55, "lon": -103.4994749950378, "lat": 19.621649116944361, "altitud_kml": 0.0, "dist_vecino_m": 186.34467479904043, "cuadrante": "NO", "bbox_west": -103.5003749950378, "bbox_east": -103.4985749950378, "bbox_south": 19.62074911694436, "bbox_north": 19.622549116944363 }, "geometry": { "type": "Point", "coordinates": [ -103.499474995037801, 19.621649116944361 ] } },
{ "type": "Feature", "properties": { "parcela": "H56", "num": 56, "lon": -103.4972616233209, "lat": 19.61921532953394, "altitud_kml": 0.0, "dist_vecino_m": 235.40344089859443, "cuadrante": "SO", "bbox_west": -103.4981616233209, "bbox_east": -103.49636162332089, "bbox_south": 19.618315329533939, "bbox_north": 19.620115329533942 }, "geometry": { "type": "Point", "coordinates": [ -103.497261623320895, 19.61921532953394 ] } },
{ "type": "Feature", "properties": { "parcela": "H57", "num": 57, "lon": -103.49503711596449, "lat": 19.61897530908676, "altitud_kml": 0.0, "dist_vecino_m": 235.40344089859443, "cuadrante": "SO", "bbox_west": -103.49593711596449, "bbox_east": -103.49413711596449, "bbox_south": 19.618075309086759, "bbox_north": 19.619875309086762 }, "geometry": { "type": "Point", "coordinates": [ -103.495037115964493, 19.61897530908676 ] } },
{ "type": "Feature", "properties": { "parcela": "H58", "num": 58, "lon": -103.49043045737019, "lat": 19.620158908293462, "altitud_kml": 0.0, "dist_vecino_m": 343.17287573210399, "cuadrante": "SE", "bbox_west": -103.4913304573702, "bbox_east": -103.48953045737019, "bbox_south": 19.61925890829346, "bbox_north": 19.621058908293463 }, "geometry": { "type": "Point", "coordinates": [ -103.490430457370195, 19.620158908293462 ] } },
{ "type": "Feature", "properties": { "parcela": "H59", "num": 59, "lon": -103.4865543693567, "lat": 19.621718270082329, "altitud_kml": 0.0, "dist_vecino_m": 371.57686368255622, "cuadrante": "NE", "bbox_west": -103.4874543693567, "bbox_east": -103.48565436935669, "bbox_south": 19.620818270082328, "bbox_north": 19.622618270082331 }, "geometry": { "type": "Point", "coordinates": [ -103.486554369356696, 19.621718270082329 ] } },
{ "type": "Feature", "properties": { "parcela": "H60", "num": 60, "lon": -103.49832770848769, "lat": 19.624103118382639, "altitud_kml": 0.0, "dist_vecino_m": 291.44942376641757, "cuadrante": "NO", "bbox_west": -103.49922770848769, "bbox_east": -103.49742770848769, "bbox_south": 19.623203118382637, "bbox_north": 19.62500311838264 }, "geometry": { "type": "Point", "coordinates": [ -103.498327708487693, 19.624103118382639 ] } },
{ "type": "Feature", "properties": { "parcela": "H61", "num": 61, "lon": -103.4966882892999, "lat": 19.626639655218568, "altitud_kml": 0.0, "dist_vecino_m": 330.04143398304689, "cuadrante": "NO", "bbox_west": -103.4975882892999, "bbox_east": -103.4957882892999, "bbox_south": 19.625739655218567, "bbox_north": 19.62753965521857 }, "geometry": { "type": "Point", "coordinates": [ -103.496688289299897, 19.626639655218568 ] } },
{ "type": "Feature", "properties": { "parcela": "H62", "num": 62, "lon": -103.49239959035459, "lat": 19.625748661583771, "altitud_kml": 0.0, "dist_vecino_m": 399.70401599415248, "cuadrante": "NE", "bbox_west": -103.4932995903546, "bbox_east": -103.49149959035459, "bbox_south": 19.624848661583769, "bbox_north": 19.626648661583772 }, "geometry": { "type": "Point", "coordinates": [ -103.492399590354594, 19.625748661583771 ] } },
{ "type": "Feature", "properties": { "parcela": "H63", "num": 63, "lon": -103.4905956816595, "lat": 19.629674798415142, "altitud_kml": 0.0, "dist_vecino_m": 475.13578131567368, "cuadrante": "NE", "bbox_west": -103.4914956816595, "bbox_east": -103.4896956816595, "bbox_south": 19.62877479841514, "bbox_north": 19.630574798415143 }, "geometry": { "type": "Point", "coordinates": [ -103.490595681659499, 19.629674798415142 ] } },
{ "type": "Feature", "properties": { "parcela": "H64", "num": 64, "lon": -103.4897338139707, "lat": 19.623180424763881, "altitud_kml": 0.0, "dist_vecino_m": 343.17287573210399, "cuadrante": "NE", "bbox_west": -103.4906338139707, "bbox_east": -103.4888338139707, "bbox_south": 19.622280424763879, "bbox_north": 19.624080424763882 }, "geometry": { "type": "Point", "coordinates": [ -103.489733813970702, 19.623180424763881 ] } },
{ "type": "Feature", "properties": { "parcela": "H65", "num": 65, "lon": -103.50067972152659, "lat": 19.62549316602416, "altitud_kml": 0.0, "dist_vecino_m": 227.79186258800291, "cuadrante": "NO", "bbox_west": -103.5015797215266, "bbox_east": -103.49977972152659, "bbox_south": 19.624593166024159, "bbox_north": 19.626393166024162 }, "geometry": { "type": "Point", "coordinates": [ -103.500679721526595, 19.62549316602416 ] } },
{ "type": "Feature", "properties": { "parcela": "H66", "num": 66, "lon": -103.5006843723593, "lat": 19.627546067057771, "altitud_kml": 0.0, "dist_vecino_m": 227.79186258800291, "cuadrante": "NO", "bbox_west": -103.5015843723593, "bbox_east": -103.4997843723593, "bbox_south": 19.62664606705777, "bbox_north": 19.628446067057773 }, "geometry": { "type": "Point", "coordinates": [ -103.500684372359302, 19.627546067057771 ] } },
{ "type": "Feature", "properties": { "parcela": "H67", "num": 67, "lon": -103.50063139320009, "lat": 19.632049573166789, "altitud_kml": 0.0, "dist_vecino_m": 499.74334761007799, "cuadrante": "NO", "bbox_west": -103.5015313932001, "bbox_east": -103.49973139320009, "bbox_south": 19.631149573166788, "bbox_north": 19.63294957316679 }, "geometry": { "type": "Point", "coordinates": [ -103.500631393200095, 19.632049573166789 ] } },
{ "type": "Feature", "properties": { "parcela": "H68", "num": 68, "lon": -103.5041222734758, "lat": 19.627645438784089, "altitud_kml": 0.0, "dist_vecino_m": 361.62404237185342, "cuadrante": "NO", "bbox_west": -103.5050222734758, "bbox_east": -103.5032222734758, "bbox_south": 19.626745438784088, "bbox_north": 19.628545438784091 }, "geometry": { "type": "Point", "coordinates": [ -103.504122273475801, 19.627645438784089 ] } },
{ "type": "Feature", "properties": { "parcela": "H69", "num": 69, "lon": -103.5088931720352, "lat": 19.623268504598009, "altitud_kml": 0.0, "dist_vecino_m": 213.03030309997058, "cuadrante": "NO", "bbox_west": -103.5097931720352, "bbox_east": -103.5079931720352, "bbox_south": 19.622368504598008, "bbox_north": 19.624168504598011 }, "geometry": { "type": "Point", "coordinates": [ -103.508893172035201, 19.623268504598009 ] } },
{ "type": "Feature", "properties": { "parcela": "H70", "num": 70, "lon": -103.5081728823758, "lat": 19.626364588145901, "altitud_kml": 0.0, "dist_vecino_m": 323.26624000122581, "cuadrante": "NO", "bbox_west": -103.5090728823758, "bbox_east": -103.5072728823758, "bbox_south": 19.625464588145899, "bbox_north": 19.627264588145902 }, "geometry": { "type": "Point", "coordinates": [ -103.508172882375803, 19.626364588145901 ] } },
{ "type": "Feature", "properties": { "parcela": "H71", "num": 71, "lon": -103.51089636879919, "lat": 19.622980580312479, "altitud_kml": 0.0, "dist_vecino_m": 213.03030309997058, "cuadrante": "NO", "bbox_west": -103.5117963687992, "bbox_east": -103.50999636879919, "bbox_south": 19.622080580312478, "bbox_north": 19.623880580312481 }, "geometry": { "type": "Point", "coordinates": [ -103.510896368799195, 19.622980580312479 ] } },
{ "type": "Feature", "properties": { "parcela": "H72", "num": 72, "lon": -103.5088436795277, "lat": 19.607919967453029, "altitud_kml": 0.0, "dist_vecino_m": 351.31977821690089, "cuadrante": "SO", "bbox_west": -103.5097436795277, "bbox_east": -103.5079436795277, "bbox_south": 19.607019967453027, "bbox_north": 19.60881996745303 }, "geometry": { "type": "Point", "coordinates": [ -103.5088436795277, 19.607919967453029 ] } },
{ "type": "Feature", "properties": { "parcela": "H73", "num": 73, "lon": -103.51199944278839, "lat": 19.60688026534045, "altitud_kml": 0.0, "dist_vecino_m": 348.04243681040572, "cuadrante": "SO", "bbox_west": -103.5128994427884, "bbox_east": -103.51109944278839, "bbox_south": 19.605980265340449, "bbox_north": 19.607780265340452 }, "geometry": { "type": "Point", "coordinates": [ -103.511999442788394, 19.60688026534045 ] } },
{ "type": "Feature", "properties": { "parcela": "H74", "num": 74, "lon": -103.5034448997359, "lat": 19.605891737263331, "altitud_kml": 0.0, "dist_vecino_m": 338.0400612683373, "cuadrante": "SO", "bbox_west": -103.5043448997359, "bbox_east": -103.5025448997359, "bbox_south": 19.60499173726333, "bbox_north": 19.606791737263332 }, "geometry": { "type": "Point", "coordinates": [ -103.503444899735896, 19.605891737263331 ] } },
{ "type": "Feature", "properties": { "parcela": "H75", "num": 75, "lon": -103.5022381720191, "lat": 19.603068036015809, "altitud_kml": 0.0, "dist_vecino_m": 338.0400612683373, "cuadrante": "SO", "bbox_west": -103.50313817201911, "bbox_east": -103.5013381720191, "bbox_south": 19.602168036015808, "bbox_north": 19.603968036015811 }, "geometry": { "type": "Point", "coordinates": [ -103.502238172019105, 19.603068036015809 ] } },
{ "type": "Feature", "properties": { "parcela": "H76", "num": 76, "lon": -103.5080848952479, "lat": 19.613797502353261, "altitud_kml": 0.0, "dist_vecino_m": 211.87496942976776, "cuadrante": "SO", "bbox_west": -103.50898489524791, "bbox_east": -103.5071848952479, "bbox_south": 19.61289750235326, "bbox_north": 19.614697502353263 }, "geometry": { "type": "Point", "coordinates": [ -103.508084895247904, 19.613797502353261 ] } },
{ "type": "Feature", "properties": { "parcela": "H77", "num": 77, "lon": -103.5100682060295, "lat": 19.613460161928359, "altitud_kml": 0.0, "dist_vecino_m": 87.893490918163295, "cuadrante": "SO", "bbox_west": -103.5109682060295, "bbox_east": -103.5091682060295, "bbox_south": 19.612560161928357, "bbox_north": 19.61436016192836 }, "geometry": { "type": "Point", "coordinates": [ -103.510068206029501, 19.613460161928359 ] } },
{ "type": "Feature", "properties": { "parcela": "H78", "num": 78, "lon": -103.5105722727903, "lat": 19.61409204222733, "altitud_kml": 0.0, "dist_vecino_m": 87.893490918163295, "cuadrante": "SO", "bbox_west": -103.5114722727903, "bbox_east": -103.5096722727903, "bbox_south": 19.613192042227329, "bbox_north": 19.614992042227332 }, "geometry": { "type": "Point", "coordinates": [ -103.510572272790299, 19.61409204222733 ] } },
{ "type": "Feature", "properties": { "parcela": "H79", "num": 79, "lon": -103.5123741788091, "lat": 19.613532155990239, "altitud_kml": 0.0, "dist_vecino_m": 199.39363900302985, "cuadrante": "SO", "bbox_west": -103.5132741788091, "bbox_east": -103.5114741788091, "bbox_south": 19.612632155990237, "bbox_north": 19.61443215599024 }, "geometry": { "type": "Point", "coordinates": [ -103.512374178809097, 19.613532155990239 ] } },
{ "type": "Feature", "properties": { "parcela": "H80", "num": 80, "lon": -103.51106206285731, "lat": 19.61779554429717, "altitud_kml": 0.0, "dist_vecino_m": 312.90794593093244, "cuadrante": "SO", "bbox_west": -103.51196206285731, "bbox_east": -103.5101620628573, "bbox_south": 19.616895544297169, "bbox_north": 19.618695544297172 }, "geometry": { "type": "Point", "coordinates": [ -103.511062062857306, 19.61779554429717 ] } },
{ "type": "Feature", "properties": { "parcela": "H81", "num": 81, "lon": -103.51312006068299, "lat": 19.61991823018052, "altitud_kml": 0.0, "dist_vecino_m": 163.61559030322243, "cuadrante": "SO", "bbox_west": -103.51402006068299, "bbox_east": -103.51222006068299, "bbox_south": 19.619018230180519, "bbox_north": 19.620818230180522 }, "geometry": { "type": "Point", "coordinates": [ -103.513120060682994, 19.61991823018052 ] } },
{ "type": "Feature", "properties": { "parcela": "H82", "num": 82, "lon": -103.514415855126, "lat": 19.620734659592639, "altitud_kml": 0.0, "dist_vecino_m": 163.61559030322243, "cuadrante": "SO", "bbox_west": -103.515315855126, "bbox_east": -103.513515855126, "bbox_south": 19.619834659592637, "bbox_north": 19.62163465959264 }, "geometry": { "type": "Point", "coordinates": [ -103.514415855126003, 19.620734659592639 ] } },
{ "type": "Feature", "properties": { "parcela": "H83", "num": 83, "lon": -103.5148556403709, "lat": 19.618236432690249, "altitud_kml": 0.0, "dist_vecino_m": 261.01293039594299, "cuadrante": "SO", "bbox_west": -103.5157556403709, "bbox_east": -103.5139556403709, "bbox_south": 19.617336432690248, "bbox_north": 19.619136432690251 }, "geometry": { "type": "Point", "coordinates": [ -103.514855640370897, 19.618236432690249 ] } },
{ "type": "Feature", "properties": { "parcela": "H84", "num": 84, "lon": -103.51732078776691, "lat": 19.616558301089519, "altitud_kml": 0.0, "dist_vecino_m": 203.33289663956927, "cuadrante": "SO", "bbox_west": -103.51822078776691, "bbox_east": -103.5164207877669, "bbox_south": 19.615658301089518, "bbox_north": 19.61745830108952 }, "geometry": { "type": "Point", "coordinates": [ -103.517320787766906, 19.616558301089519 ] } },
{ "type": "Feature", "properties": { "parcela": "H85", "num": 85, "lon": -103.515910301509, "lat": 19.615304738732618, "altitud_kml": 0.0, "dist_vecino_m": 203.33289663956927, "cuadrante": "SO", "bbox_west": -103.516810301509, "bbox_east": -103.51501030150899, "bbox_south": 19.614404738732617, "bbox_north": 19.61620473873262 }, "geometry": { "type": "Point", "coordinates": [ -103.515910301508995, 19.615304738732618 ] } },
{ "type": "Feature", "properties": { "parcela": "H86", "num": 86, "lon": -103.51762998492561, "lat": 19.6126488644727, "altitud_kml": 0.0, "dist_vecino_m": 345.75586954815782, "cuadrante": "SO", "bbox_west": -103.51852998492561, "bbox_east": -103.5167299849256, "bbox_south": 19.611748864472698, "bbox_north": 19.613548864472701 }, "geometry": { "type": "Point", "coordinates": [ -103.517629984925605, 19.6126488644727 ] } },
{ "type": "Feature", "properties": { "parcela": "H87", "num": 87, "lon": -103.51475779988471, "lat": 19.610745349749489, "altitud_kml": 0.0, "dist_vecino_m": 279.78050380291415, "cuadrante": "SO", "bbox_west": -103.51565779988471, "bbox_east": -103.5138577998847, "bbox_south": 19.609845349749488, "bbox_north": 19.611645349749491 }, "geometry": { "type": "Point", "coordinates": [ -103.514757799884705, 19.610745349749489 ] } },
{ "type": "Feature", "properties": { "parcela": "H88", "num": 88, "lon": -103.51816450361, "lat": 19.60922824229959, "altitud_kml": 0.0, "dist_vecino_m": 352.0368758096763, "cuadrante": "SO", "bbox_west": -103.51906450361, "bbox_east": -103.51726450360999, "bbox_south": 19.608328242299589, "bbox_north": 19.610128242299592 }, "geometry": { "type": "Point", "coordinates": [ -103.518164503609995, 19.60922824229959 ] } },
{ "type": "Feature", "properties": { "parcela": "H89", "num": 89, "lon": -103.5241137226966, "lat": 19.609727923898589, "altitud_kml": 0.0, "dist_vecino_m": 196.99759949027714, "cuadrante": "SO", "bbox_west": -103.5250137226966, "bbox_east": -103.5232137226966, "bbox_south": 19.608827923898588, "bbox_north": 19.610627923898591 }, "geometry": { "type": "Point", "coordinates": [ -103.524113722696598, 19.609727923898589 ] } },
{ "type": "Feature", "properties": { "parcela": "H90", "num": 90, "lon": -103.5257551584595, "lat": 19.608872197044121, "altitud_kml": 0.0, "dist_vecino_m": 196.99759949027714, "cuadrante": "SO", "bbox_west": -103.5266551584595, "bbox_east": -103.5248551584595, "bbox_south": 19.60797219704412, "bbox_north": 19.609772197044123 }, "geometry": { "type": "Point", "coordinates": [ -103.525755158459503, 19.608872197044121 ] } },
{ "type": "Feature", "properties": { "parcela": "H91", "num": 91, "lon": -103.52337476519359, "lat": 19.6076221074036, "altitud_kml": 0.0, "dist_vecino_m": 246.25030015617278, "cuadrante": "SO", "bbox_west": -103.5242747651936, "bbox_east": -103.52247476519359, "bbox_south": 19.606722107403598, "bbox_north": 19.608522107403601 }, "geometry": { "type": "Point", "coordinates": [ -103.523374765193594, 19.6076221074036 ] } },
{ "type": "Feature", "properties": { "parcela": "H92", "num": 92, "lon": -103.5215470361636, "lat": 19.605609409539781, "altitud_kml": 0.0, "dist_vecino_m": 226.97855700484627, "cuadrante": "SO", "bbox_west": -103.5224470361636, "bbox_east": -103.5206470361636, "bbox_south": 19.60470940953978, "bbox_north": 19.606509409539782 }, "geometry": { "type": "Point", "coordinates": [ -103.521547036163597, 19.605609409539781 ] } },
{ "type": "Feature", "properties": { "parcela": "H93", "num": 93, "lon": -103.526896999217, "lat": 19.60208824925957, "altitud_kml": 0.0, "dist_vecino_m": 526.48859420533859, "cuadrante": "SO", "bbox_west": -103.527796999217, "bbox_east": -103.525996999217, "bbox_south": 19.601188249259568, "bbox_north": 19.602988249259571 }, "geometry": { "type": "Point", "coordinates": [ -103.526896999217001, 19.60208824925957 ] } },
{ "type": "Feature", "properties": { "parcela": "H94", "num": 94, "lon": -103.5219082769416, "lat": 19.602489378100721, "altitud_kml": 0.0, "dist_vecino_m": 260.67972512838827, "cuadrante": "SO", "bbox_west": -103.5228082769416, "bbox_east": -103.5210082769416, "bbox_south": 19.601589378100719, "bbox_north": 19.603389378100722 }, "geometry": { "type": "Point", "coordinates": [ -103.521908276941602, 19.602489378100721 ] } },
{ "type": "Feature", "properties": { "parcela": "H95", "num": 95, "lon": -103.5188596816631, "lat": 19.603121152568441, "altitud_kml": 0.0, "dist_vecino_m": 165.96620319016506, "cuadrante": "SO", "bbox_west": -103.5197596816631, "bbox_east": -103.5179596816631, "bbox_south": 19.60222115256844, "bbox_north": 19.604021152568443 }, "geometry": { "type": "Point", "coordinates": [ -103.518859681663102, 19.603121152568441 ] } },
{ "type": "Feature", "properties": { "parcela": "H96", "num": 96, "lon": -103.520077159053, "lat": 19.604072943093229, "altitud_kml": 0.0, "dist_vecino_m": 165.96620319016506, "cuadrante": "SO", "bbox_west": -103.520977159053, "bbox_east": -103.519177159053, "bbox_south": 19.603172943093227, "bbox_north": 19.60497294309323 }, "geometry": { "type": "Point", "coordinates": [ -103.520077159053002, 19.604072943093229 ] } },
{ "type": "Feature", "properties": { "parcela": "H97", "num": 97, "lon": -103.5194188749723, "lat": 19.60595122525007, "altitud_kml": 0.0, "dist_vecino_m": 219.61473131859742, "cuadrante": "SO", "bbox_west": -103.5203188749723, "bbox_east": -103.5185188749723, "bbox_south": 19.605051225250069, "bbox_north": 19.606851225250072 }, "geometry": { "type": "Point", "coordinates": [ -103.519418874972303, 19.60595122525007 ] } },
{ "type": "Feature", "properties": { "parcela": "H98", "num": 98, "lon": -103.51498556346699, "lat": 19.60823320763247, "altitud_kml": 0.0, "dist_vecino_m": 279.78050380291415, "cuadrante": "SO", "bbox_west": -103.51588556346699, "bbox_east": -103.51408556346699, "bbox_south": 19.607333207632468, "bbox_north": 19.609133207632471 }, "geometry": { "type": "Point", "coordinates": [ -103.514985563466993, 19.60823320763247 ] } },
{ "type": "Feature", "properties": { "parcela": "H99", "num": 99, "lon": -103.5158544085341, "lat": 19.60388855172959, "altitud_kml": 0.0, "dist_vecino_m": 327.29440650140293, "cuadrante": "SO", "bbox_west": -103.5167544085341, "bbox_east": -103.51495440853409, "bbox_south": 19.602988551729588, "bbox_north": 19.604788551729591 }, "geometry": { "type": "Point", "coordinates": [ -103.515854408534096, 19.60388855172959 ] } },
{ "type": "Feature", "properties": { "parcela": "H100", "num": 100, "lon": -103.5003223970978, "lat": 19.6382574968776, "altitud_kml": 0.0, "dist_vecino_m": 689.60144439150736, "cuadrante": "NO", "bbox_west": -103.50122239709781, "bbox_east": -103.4994223970978, "bbox_south": 19.637357496877598, "bbox_north": 19.639157496877601 }, "geometry": { "type": "Point", "coordinates": [ -103.500322397097804, 19.6382574968776 ] } }
]
}
