<?xml version="1.0" encoding="UTF-8"?>
<kml xmlns="http://www.opengis.net/kml/2.2" xmlns:gx="http://www.google.com/kml/ext/2.2" xmlns:kml="http://www.opengis.net/kml/2.2" xmlns:atom="http://www.w3.org/2005/Atom">
<Document>
	<name>Aguacates Jalisco 5.5.26.kml</name>
	<StyleMap id="m_ylw-pushpin">
		<Pair>
			<key>normal</key>
			<styleUrl>#s_ylw-pushpin</styleUrl>
		</Pair>
		<Pair>
			<key>highlight</key>
			<styleUrl>#s_ylw-pushpin_hl</styleUrl>
		</Pair>
	</StyleMap>
	<Style id="s_ylw-pushpin">
		<IconStyle>
			<scale>1.1</scale>
			<Icon>
				<href>http://maps.google.com/mapfiles/kml/pushpin/ylw-pushpin.png</href>
			</Icon>
			<hotSpot x="20" y="2" xunits="pixels" yunits="pixels"/>
		</IconStyle>
	</Style>
	<Style id="s_ylw-pushpin_hl">
		<IconStyle>
			<scale>1.3</scale>
			<Icon>
				<href>http://maps.google.com/mapfiles/kml/pushpin/ylw-pushpin.png</href>
			</Icon>
			<hotSpot x="20" y="2" xunits="pixels" yunits="pixels"/>
		</IconStyle>
	</Style>
	<Folder>
		<name>Aguacates Jalisco 5.5.26</name>
		<open>1</open>
		<Placemark>
			<name>H1</name>
			<LookAt>
				<longitude>-103.4874704375219</longitude>
				<latitude>19.66316440676029</latitude>
				<altitude>0</altitude>
				<heading>-0.3241028484812554</heading>
				<tilt>29.87615362016214</tilt>
				<range>263.8099461051622</range>
				<gx:altitudeMode>relativeToSeaFloor</gx:altitudeMode>
			</LookAt>
			<styleUrl>#m_ylw-pushpin</styleUrl>
			<Point>
				<gx:drawOrder>1</gx:drawOrder>
				<coordinates>-103.4874704375219,19.66316440676028,0</coordinates>
			</Point>
		</Placemark>
		<Placemark>
			<name>H2</name>
			<LookAt>
				<longitude>-103.4910596855113</longitude>
				<latitude>19.66041941654865</latitude>
				<altitude>0</altitude>
				<heading>-0.3317435924739803</heading>
				<tilt>21.50937213246268</tilt>
				<range>1014.147293567227</range>
				<gx:altitudeMode>relativeToSeaFloor</gx:altitudeMode>
			</LookAt>
			<styleUrl>#m_ylw-pushpin</styleUrl>
			<Point>
				<gx:drawOrder>1</gx:drawOrder>
				<coordinates>-103.4916814554342,19.65958480327006,0</coordinates>
			</Point>
		</Placemark>
		<Placemark>
			<name>H3</name>
			<LookAt>
				<longitude>-103.4954695120808</longitude>
				<latitude>19.64806815935976</latitude>
				<altitude>0</altitude>
				<heading>-0.3274311482287777</heading>
				<tilt>30.00322759229896</tilt>
				<range>719.0097746981173</range>
				<gx:altitudeMode>relativeToSeaFloor</gx:altitudeMode>
			</LookAt>
			<styleUrl>#m_ylw-pushpin</styleUrl>
			<Point>
				<gx:drawOrder>1</gx:drawOrder>
				<coordinates>-103.495946402958,19.64923190063498,0</coordinates>
			</Point>
		</Placemark>
		<Placemark>
			<name>H4</name>
			<LookAt>
				<longitude>-103.4946780063322</longitude>
				<latitude>19.64858990456323</latitude>
				<altitude>0</altitude>
				<heading>-0.3324384494388861</heading>
				<tilt>22.17019059841966</tilt>
				<range>690.6114155308684</range>
				<gx:altitudeMode>relativeToSeaFloor</gx:altitudeMode>
			</LookAt>
			<styleUrl>#m_ylw-pushpin</styleUrl>
			<Point>
				<gx:drawOrder>1</gx:drawOrder>
				<coordinates>-103.4934247600402,19.64892797006392,0</coordinates>
			</Point>
		</Placemark>
		<Placemark>
			<name>H5</name>
			<LookAt>
				<longitude>-103.4921345133032</longitude>
				<latitude>19.64724569257997</latitude>
				<altitude>0</altitude>
				<heading>-0.3315831999583676</heading>
				<tilt>22.17018088268491</tilt>
				<range>687.7445708038546</range>
				<gx:altitudeMode>relativeToSeaFloor</gx:altitudeMode>
			</LookAt>
			<styleUrl>#m_ylw-pushpin</styleUrl>
			<Point>
				<gx:drawOrder>1</gx:drawOrder>
				<coordinates>-103.4905412268389,19.64768676086755,0</coordinates>
			</Point>
		</Placemark>
		<Placemark>
			<name>H6</name>
			<LookAt>
				<longitude>-103.4913057332442</longitude>
				<latitude>19.64488013969135</latitude>
				<altitude>0</altitude>
				<heading>-0.3257738399037948</heading>
				<tilt>30.00267077131108</tilt>
				<range>594.7818825094865</range>
				<gx:altitudeMode>relativeToSeaFloor</gx:altitudeMode>
			</LookAt>
			<styleUrl>#m_ylw-pushpin</styleUrl>
			<Point>
				<gx:drawOrder>1</gx:drawOrder>
				<coordinates>-103.4931777628067,19.64498379789444,0</coordinates>
			</Point>
		</Placemark>
		<Placemark>
			<name>H7</name>
			<LookAt>
				<longitude>-103.4914323787945</longitude>
				<latitude>19.64536806783698</latitude>
				<altitude>0</altitude>
				<heading>-0.325816430041285</heading>
				<tilt>30.00266789935905</tilt>
				<range>594.1423777063258</range>
				<gx:altitudeMode>relativeToSeaFloor</gx:altitudeMode>
			</LookAt>
			<styleUrl>#m_ylw-pushpin</styleUrl>
			<Point>
				<gx:drawOrder>1</gx:drawOrder>
				<coordinates>-103.4907449690666,19.64523781970015,0</coordinates>
			</Point>
		</Placemark>
		<Placemark>
			<name>H8</name>
			<LookAt>
				<longitude>-103.4919779953152</longitude>
				<latitude>19.64391544066743</latitude>
				<altitude>0</altitude>
				<heading>-0.3260269922145528</heading>
				<tilt>30.00360089982681</tilt>
				<range>801.9589502527888</range>
				<gx:altitudeMode>relativeToSeaFloor</gx:altitudeMode>
			</LookAt>
			<styleUrl>#m_ylw-pushpin</styleUrl>
			<Point>
				<gx:drawOrder>1</gx:drawOrder>
				<coordinates>-103.4919779953152,19.64391544066743,0</coordinates>
			</Point>
		</Placemark>
		<Placemark>
			<name>H9</name>
			<LookAt>
				<longitude>-103.4919779953152</longitude>
				<latitude>19.64391544066743</latitude>
				<altitude>0</altitude>
				<heading>-0.3260269922145528</heading>
				<tilt>30.00360089982681</tilt>
				<range>801.9589502527888</range>
				<gx:altitudeMode>relativeToSeaFloor</gx:altitudeMode>
			</LookAt>
			<styleUrl>#m_ylw-pushpin</styleUrl>
			<Point>
				<gx:drawOrder>1</gx:drawOrder>
				<coordinates>-103.4923312690368,19.64289593962869,0</coordinates>
			</Point>
		</Placemark>
		<Placemark>
			<name>H10</name>
			<LookAt>
				<longitude>-103.4919779953152</longitude>
				<latitude>19.64391544066743</latitude>
				<altitude>0</altitude>
				<heading>-0.3260269922145528</heading>
				<tilt>30.00360089982681</tilt>
				<range>801.9589502527888</range>
				<gx:altitudeMode>relativeToSeaFloor</gx:altitudeMode>
			</LookAt>
			<styleUrl>#m_ylw-pushpin</styleUrl>
			<Point>
				<gx:drawOrder>1</gx:drawOrder>
				<coordinates>-103.4935692151058,19.64326268753868,0</coordinates>
			</Point>
		</Placemark>
		<Placemark>
			<name>H11</name>
			<LookAt>
				<longitude>-103.4970622526254</longitude>
				<latitude>19.63898627859555</latitude>
				<altitude>0</altitude>
				<heading>-0.3277363338823233</heading>
				<tilt>30.00790945311714</tilt>
				<range>1761.399238473707</range>
				<gx:altitudeMode>relativeToSeaFloor</gx:altitudeMode>
			</LookAt>
			<styleUrl>#m_ylw-pushpin</styleUrl>
			<Point>
				<gx:drawOrder>1</gx:drawOrder>
				<coordinates>-103.4910115238732,19.63699143780181,0</coordinates>
			</Point>
		</Placemark>
		<Placemark>
			<name>H12</name>
			<LookAt>
				<longitude>-103.4873364566458</longitude>
				<latitude>19.6374793587074</latitude>
				<altitude>0</altitude>
				<heading>-0.3244675076157838</heading>
				<tilt>30.00807395788497</tilt>
				<range>1798.024870716476</range>
				<gx:altitudeMode>relativeToSeaFloor</gx:altitudeMode>
			</LookAt>
			<styleUrl>#m_ylw-pushpin</styleUrl>
			<Point>
				<gx:drawOrder>1</gx:drawOrder>
				<coordinates>-103.4866375453042,19.6423261120543,0</coordinates>
			</Point>
		</Placemark>
		<Placemark>
			<name>H13</name>
			<LookAt>
				<longitude>-103.4861957285818</longitude>
				<latitude>19.63721611490641</latitude>
				<altitude>0</altitude>
				<heading>-0.3240841424188122</heading>
				<tilt>30.00812044329515</tilt>
				<range>1808.374389828896</range>
				<gx:altitudeMode>relativeToSeaFloor</gx:altitudeMode>
			</LookAt>
			<styleUrl>#m_ylw-pushpin</styleUrl>
			<Point>
				<gx:drawOrder>1</gx:drawOrder>
				<coordinates>-103.4859554790877,19.63928751073353,0</coordinates>
			</Point>
		</Placemark>
		<Placemark>
			<name>H14</name>
			<LookAt>
				<longitude>-103.4783889889258</longitude>
				<latitude>19.63810334260486</latitude>
				<altitude>0</altitude>
				<heading>-0.3214609116607788</heading>
				<tilt>30.00830252542247</tilt>
				<range>1848.912853407347</range>
				<gx:altitudeMode>relativeToSeaFloor</gx:altitudeMode>
			</LookAt>
			<styleUrl>#m_ylw-pushpin</styleUrl>
			<Point>
				<gx:drawOrder>1</gx:drawOrder>
				<coordinates>-103.4783889889258,19.63810334260486,0</coordinates>
			</Point>
		</Placemark>
		<Placemark>
			<name>H15</name>
			<LookAt>
				<longitude>-103.4852392354686</longitude>
				<latitude>19.63591520714804</latitude>
				<altitude>0</altitude>
				<heading>-0.3237625704057164</heading>
				<tilt>30.00813825571931</tilt>
				<range>1812.340193269813</range>
				<gx:altitudeMode>relativeToSeaFloor</gx:altitudeMode>
			</LookAt>
			<styleUrl>#m_ylw-pushpin</styleUrl>
			<Point>
				<gx:drawOrder>1</gx:drawOrder>
				<coordinates>-103.4860570044078,19.63304594879294,0</coordinates>
			</Point>
		</Placemark>
		<Placemark>
			<name>H16</name>
			<LookAt>
				<longitude>-103.4780586924613</longitude>
				<latitude>19.63363829304725</latitude>
				<altitude>0</altitude>
				<heading>-0.3214090524276722</heading>
				<tilt>28.7195649303739</tilt>
				<range>1471.977185635286</range>
				<gx:altitudeMode>relativeToSeaFloor</gx:altitudeMode>
			</LookAt>
			<styleUrl>#m_ylw-pushpin</styleUrl>
			<Point>
				<gx:drawOrder>1</gx:drawOrder>
				<coordinates>-103.4780586924613,19.63363829304725,0</coordinates>
			</Point>
		</Placemark>
		<Placemark>
			<name>H18</name>
			<LookAt>
				<longitude>-103.4725275956281</longitude>
				<latitude>19.64522629994707</latitude>
				<altitude>0</altitude>
				<heading>-0.3194809682931501</heading>
				<tilt>28.48665747900659</tilt>
				<range>637.5027501240367</range>
				<gx:altitudeMode>relativeToSeaFloor</gx:altitudeMode>
			</LookAt>
			<styleUrl>#m_ylw-pushpin</styleUrl>
			<Point>
				<gx:drawOrder>1</gx:drawOrder>
				<coordinates>-103.4727003353048,19.64603762240055,0</coordinates>
			</Point>
		</Placemark>
		<Placemark>
			<name>H17</name>
			<LookAt>
				<longitude>-103.4740222414965</longitude>
				<latitude>19.64350681735759</latitude>
				<altitude>0</altitude>
				<heading>-0.3199833454860211</heading>
				<tilt>28.48904488614601</tilt>
				<range>1194.902179994471</range>
				<gx:altitudeMode>relativeToSeaFloor</gx:altitudeMode>
			</LookAt>
			<styleUrl>#m_ylw-pushpin</styleUrl>
			<Point>
				<gx:drawOrder>1</gx:drawOrder>
				<coordinates>-103.4740222414965,19.64350681735759,0</coordinates>
			</Point>
		</Placemark>
		<Placemark>
			<name>H19</name>
			<LookAt>
				<longitude>-103.4650582850478</longitude>
				<latitude>19.64575880170584</latitude>
				<altitude>0</altitude>
				<heading>-0.3180800692421467</heading>
				<tilt>21.32860203103678</tilt>
				<range>574.5127993186951</range>
				<gx:altitudeMode>relativeToSeaFloor</gx:altitudeMode>
			</LookAt>
			<styleUrl>#m_ylw-pushpin</styleUrl>
			<Point>
				<gx:drawOrder>1</gx:drawOrder>
				<coordinates>-103.4660382865516,19.64471242055359,0</coordinates>
			</Point>
		</Placemark>
		<Placemark>
			<name>H20</name>
			<LookAt>
				<longitude>-103.4646829126391</longitude>
				<latitude>19.64611100006798</latitude>
				<altitude>0</altitude>
				<heading>-0.3170097128404363</heading>
				<tilt>25.7694127738505</tilt>
				<range>507.2544447980733</range>
				<gx:altitudeMode>relativeToSeaFloor</gx:altitudeMode>
			</LookAt>
			<styleUrl>#m_ylw-pushpin</styleUrl>
			<Point>
				<gx:drawOrder>1</gx:drawOrder>
				<coordinates>-103.463262682718,19.64573564260593,0</coordinates>
			</Point>
		</Placemark>
		<Placemark>
			<name>H21</name>
			<LookAt>
				<longitude>-103.4677531199837</longitude>
				<latitude>19.64180733164809</latitude>
				<altitude>0</altitude>
				<heading>-0.3178410912542416</heading>
				<tilt>27.43950567015024</tilt>
				<range>1086.577048368474</range>
				<gx:altitudeMode>relativeToSeaFloor</gx:altitudeMode>
			</LookAt>
			<styleUrl>#m_ylw-pushpin</styleUrl>
			<Point>
				<gx:drawOrder>1</gx:drawOrder>
				<coordinates>-103.4659894961305,19.64156668442107,0</coordinates>
			</Point>
		</Placemark>
		<Placemark>
			<name>H22</name>
			<LookAt>
				<longitude>-103.4671588095471</longitude>
				<latitude>19.63905803865679</latitude>
				<altitude>0</altitude>
				<heading>-0.3176412962996038</heading>
				<tilt>27.43953881866242</tilt>
				<range>1094.586759567723</range>
				<gx:altitudeMode>relativeToSeaFloor</gx:altitudeMode>
			</LookAt>
			<styleUrl>#m_ylw-pushpin</styleUrl>
			<Point>
				<gx:drawOrder>1</gx:drawOrder>
				<coordinates>-103.466659499049,19.63841324577597,0</coordinates>
			</Point>
		</Placemark>
		<Placemark>
			<name>H23</name>
			<LookAt>
				<longitude>-103.459232016786</longitude>
				<latitude>19.64621407641481</latitude>
				<altitude>0</altitude>
				<heading>-0.314055140808838</heading>
				<tilt>31.8114011830574</tilt>
				<range>655.684980181662</range>
				<gx:altitudeMode>relativeToSeaFloor</gx:altitudeMode>
			</LookAt>
			<styleUrl>#m_ylw-pushpin</styleUrl>
			<Point>
				<gx:drawOrder>1</gx:drawOrder>
				<coordinates>-103.4600574738049,19.64582256330241,0</coordinates>
			</Point>
		</Placemark>
		<Placemark>
			<name>H24</name>
			<LookAt>
				<longitude>-103.4649847183568</longitude>
				<latitude>19.63435183942066</latitude>
				<altitude>0</altitude>
				<heading>-0.3160059000653174</heading>
				<tilt>29.87757122255931</tilt>
				<range>858.6574550224891</range>
				<gx:altitudeMode>relativeToSeaFloor</gx:altitudeMode>
			</LookAt>
			<styleUrl>#m_ylw-pushpin</styleUrl>
			<Point>
				<gx:drawOrder>1</gx:drawOrder>
				<coordinates>-103.4659597724037,19.63458571520362,0</coordinates>
			</Point>
		</Placemark>
		<Placemark>
			<name>H25</name>
			<LookAt>
				<longitude>-103.4702974769321</longitude>
				<latitude>19.63536897935559</latitude>
				<altitude>0</altitude>
				<heading>-0.3177910531589614</heading>
				<tilt>29.87745486329489</tilt>
				<range>832.6489266623295</range>
				<gx:altitudeMode>relativeToSeaFloor</gx:altitudeMode>
			</LookAt>
			<styleUrl>#m_ylw-pushpin</styleUrl>
			<Point>
				<gx:drawOrder>1</gx:drawOrder>
				<coordinates>-103.4698151940444,19.6352254903721,0</coordinates>
			</Point>
		</Placemark>
		<Placemark>
			<name>H26</name>
			<LookAt>
				<longitude>-103.4731940590312</longitude>
				<latitude>19.63723364129915</latitude>
				<altitude>0</altitude>
				<heading>-0.3183542263591642</heading>
				<tilt>24.74809020193443</tilt>
				<range>1550.620346932738</range>
				<gx:altitudeMode>relativeToSeaFloor</gx:altitudeMode>
			</LookAt>
			<styleUrl>#m_ylw-pushpin</styleUrl>
			<Point>
				<gx:drawOrder>1</gx:drawOrder>
				<coordinates>-103.4725797498141,19.6375519816719,0</coordinates>
			</Point>
		</Placemark>
		<Placemark>
			<name>H27</name>
			<LookAt>
				<longitude>-103.4697937765277</longitude>
				<latitude>19.6326566185888</latitude>
				<altitude>0</altitude>
				<heading>-0.3175341651374923</heading>
				<tilt>27.91300250497051</tilt>
				<range>729.6935340920228</range>
				<gx:altitudeMode>relativeToSeaFloor</gx:altitudeMode>
			</LookAt>
			<styleUrl>#m_ylw-pushpin</styleUrl>
			<Point>
				<gx:drawOrder>1</gx:drawOrder>
				<coordinates>-103.4706206808633,19.63252169252172,0</coordinates>
			</Point>
		</Placemark>
		<Placemark>
			<name>H28</name>
			<LookAt>
				<longitude>-103.4664089872862</longitude>
				<latitude>19.63052869213359</latitude>
				<altitude>0</altitude>
				<heading>-0.3163970978281655</heading>
				<tilt>27.91308493641286</tilt>
				<range>749.2999644808481</range>
				<gx:altitudeMode>relativeToSeaFloor</gx:altitudeMode>
			</LookAt>
			<styleUrl>#m_ylw-pushpin</styleUrl>
			<Point>
				<gx:drawOrder>1</gx:drawOrder>
				<coordinates>-103.4667801634766,19.62924958680501,0</coordinates>
			</Point>
		</Placemark>
		<Placemark>
			<name>H29</name>
			<LookAt>
				<longitude>-103.472881004501</longitude>
				<latitude>19.62666815876887</latitude>
				<altitude>0</altitude>
				<heading>-0.3185519181418493</heading>
				<tilt>29.10299789230483</tilt>
				<range>668.2111437171617</range>
				<gx:altitudeMode>relativeToSeaFloor</gx:altitudeMode>
			</LookAt>
			<styleUrl>#m_ylw-pushpin</styleUrl>
			<Point>
				<gx:drawOrder>1</gx:drawOrder>
				<coordinates>-103.4724550507898,19.62595823238879,0</coordinates>
			</Point>
		</Placemark>
		<Placemark>
			<name>H30</name>
			<LookAt>
				<longitude>-103.4676843698973</longitude>
				<latitude>19.62540795088591</latitude>
				<altitude>0</altitude>
				<heading>-0.3167302945270627</heading>
				<tilt>29.80753238891646</tilt>
				<range>851.512305649013</range>
				<gx:altitudeMode>relativeToSeaFloor</gx:altitudeMode>
			</LookAt>
			<styleUrl>#m_ylw-pushpin</styleUrl>
			<Point>
				<gx:drawOrder>1</gx:drawOrder>
				<coordinates>-103.4673631977053,19.62454684136882,0</coordinates>
			</Point>
		</Placemark>
		<Placemark>
			<name>H31</name>
			<LookAt>
				<longitude>-103.4750710370842</longitude>
				<latitude>19.62426661332913</latitude>
				<altitude>0</altitude>
				<heading>-0.3192655381154532</heading>
				<tilt>28.92435448559997</tilt>
				<range>1150.628101094918</range>
				<gx:altitudeMode>relativeToSeaFloor</gx:altitudeMode>
			</LookAt>
			<styleUrl>#m_ylw-pushpin</styleUrl>
			<Point>
				<gx:drawOrder>1</gx:drawOrder>
				<coordinates>-103.4720322735746,19.62400044564311,0</coordinates>
			</Point>
		</Placemark>
		<Placemark>
			<name>H32</name>
			<LookAt>
				<longitude>-103.4768073811872</longitude>
				<latitude>19.6203735176824</latitude>
				<altitude>0</altitude>
				<heading>-0.3198482681700618</heading>
				<tilt>28.92433334163746</tilt>
				<range>1145.760177220747</range>
				<gx:altitudeMode>relativeToSeaFloor</gx:altitudeMode>
			</LookAt>
			<styleUrl>#m_ylw-pushpin</styleUrl>
			<Point>
				<gx:drawOrder>1</gx:drawOrder>
				<coordinates>-103.4767867508887,19.61959998384637,0</coordinates>
			</Point>
		</Placemark>
		<Placemark>
			<name>H33</name>
			<LookAt>
				<longitude>-103.4760854720561</longitude>
				<latitude>19.61668565331709</latitude>
				<altitude>0</altitude>
				<heading>-0.3196056879089283</heading>
				<tilt>28.92426702518971</tilt>
				<range>1130.493124288156</range>
				<gx:altitudeMode>relativeToSeaFloor</gx:altitudeMode>
			</LookAt>
			<styleUrl>#m_ylw-pushpin</styleUrl>
			<Point>
				<gx:drawOrder>1</gx:drawOrder>
				<coordinates>-103.4745293846265,19.61742108024948,0</coordinates>
			</Point>
		</Placemark>
		<Placemark>
			<name>H34</name>
			<LookAt>
				<longitude>-103.4760854720561</longitude>
				<latitude>19.61668565331709</latitude>
				<altitude>0</altitude>
				<heading>-0.3196056879089283</heading>
				<tilt>28.92426702518971</tilt>
				<range>1130.493124288156</range>
				<gx:altitudeMode>relativeToSeaFloor</gx:altitudeMode>
			</LookAt>
			<styleUrl>#m_ylw-pushpin</styleUrl>
			<Point>
				<gx:drawOrder>1</gx:drawOrder>
				<coordinates>-103.4717205538295,19.61706263447486,0</coordinates>
			</Point>
		</Placemark>
		<Placemark>
			<name>H35</name>
			<LookAt>
				<longitude>-103.4795104288851</longitude>
				<latitude>19.62372443667676</latitude>
				<altitude>0</altitude>
				<heading>-0.3211100037057021</heading>
				<tilt>26.11347036987368</tilt>
				<range>1328.319204363982</range>
				<gx:altitudeMode>relativeToSeaFloor</gx:altitudeMode>
			</LookAt>
			<styleUrl>#m_ylw-pushpin</styleUrl>
			<Point>
				<gx:drawOrder>1</gx:drawOrder>
				<coordinates>-103.4790615464518,19.62235761063883,0</coordinates>
			</Point>
		</Placemark>
		<Placemark>
			<name>H36</name>
			<LookAt>
				<longitude>-103.4785304417645</longitude>
				<latitude>19.61300057150246</latitude>
				<altitude>0</altitude>
				<heading>-0.3207979357234597</heading>
				<tilt>28.52498389140743</tilt>
				<range>1258.610160128679</range>
				<gx:altitudeMode>relativeToSeaFloor</gx:altitudeMode>
			</LookAt>
			<styleUrl>#m_ylw-pushpin</styleUrl>
			<Point>
				<gx:drawOrder>1</gx:drawOrder>
				<coordinates>-103.475737660252,19.61265718886245,0</coordinates>
			</Point>
		</Placemark>
		<Placemark>
			<name>H37</name>
			<LookAt>
				<longitude>-103.4817181324017</longitude>
				<latitude>19.61451593035064</latitude>
				<altitude>0</altitude>
				<heading>-0.3218678346137986</heading>
				<tilt>28.52714216175964</tilt>
				<range>1761.934305065082</range>
				<gx:altitudeMode>relativeToSeaFloor</gx:altitudeMode>
			</LookAt>
			<styleUrl>#m_ylw-pushpin</styleUrl>
			<Point>
				<gx:drawOrder>1</gx:drawOrder>
				<coordinates>-103.4782759946473,19.61287910833094,0</coordinates>
			</Point>
		</Placemark>
		<Placemark>
			<name>H38</name>
			<LookAt>
				<longitude>-103.4817181324017</longitude>
				<latitude>19.61451593035064</latitude>
				<altitude>0</altitude>
				<heading>-0.3218678346137986</heading>
				<tilt>28.52714216175964</tilt>
				<range>1761.934305065082</range>
				<gx:altitudeMode>relativeToSeaFloor</gx:altitudeMode>
			</LookAt>
			<styleUrl>#m_ylw-pushpin</styleUrl>
			<Point>
				<gx:drawOrder>1</gx:drawOrder>
				<coordinates>-103.4814391298695,19.61351141813728,0</coordinates>
			</Point>
		</Placemark>
		<Placemark>
			<name>H39</name>
			<LookAt>
				<longitude>-103.4855563503187</longitude>
				<latitude>19.61486936045895</latitude>
				<altitude>0</altitude>
				<heading>-0.3231561912998829</heading>
				<tilt>28.52705246348079</tilt>
				<range>1741.021002728765</range>
				<gx:altitudeMode>relativeToSeaFloor</gx:altitudeMode>
			</LookAt>
			<styleUrl>#m_ylw-pushpin</styleUrl>
			<Point>
				<gx:drawOrder>1</gx:drawOrder>
				<coordinates>-103.4846383837301,19.61739633960506,0</coordinates>
			</Point>
		</Placemark>
		<Placemark>
			<name>H40</name>
			<LookAt>
				<longitude>-103.4855563503187</longitude>
				<latitude>19.61486936045895</latitude>
				<altitude>0</altitude>
				<heading>-0.3231561912998829</heading>
				<tilt>28.52705246348079</tilt>
				<range>1741.021002728765</range>
				<gx:altitudeMode>relativeToSeaFloor</gx:altitudeMode>
			</LookAt>
			<styleUrl>#m_ylw-pushpin</styleUrl>
			<Point>
				<gx:drawOrder>1</gx:drawOrder>
				<coordinates>-103.4865932661396,19.61422321757896,0</coordinates>
			</Point>
		</Placemark>
		<Placemark>
			<name>H41</name>
			<LookAt>
				<longitude>-103.4867862323719</longitude>
				<latitude>19.61040632813749</latitude>
				<altitude>0</altitude>
				<heading>-0.3234357305090764</heading>
				<tilt>29.75650235247894</tilt>
				<range>384.7935105147145</range>
				<gx:altitudeMode>relativeToSeaFloor</gx:altitudeMode>
			</LookAt>
			<styleUrl>#m_ylw-pushpin</styleUrl>
			<Point>
				<gx:drawOrder>1</gx:drawOrder>
				<coordinates>-103.4875908955098,19.60964441322967,0</coordinates>
			</Point>
		</Placemark>
		<Placemark>
			<name>H42</name>
			<LookAt>
				<longitude>-103.4915692008494</longitude>
				<latitude>19.61773415903229</latitude>
				<altitude>0</altitude>
				<heading>-0.3252784989539205</heading>
				<tilt>28.41643763422766</tilt>
				<range>2345.897294816864</range>
				<gx:altitudeMode>relativeToSeaFloor</gx:altitudeMode>
			</LookAt>
			<styleUrl>#m_ylw-pushpin</styleUrl>
			<Point>
				<gx:drawOrder>1</gx:drawOrder>
				<coordinates>-103.4889001524713,19.6171207933109,0</coordinates>
			</Point>
		</Placemark>
		<Placemark>
			<name>H43</name>
			<LookAt>
				<longitude>-103.4915692008494</longitude>
				<latitude>19.61773415903229</latitude>
				<altitude>0</altitude>
				<heading>-0.3252784989539205</heading>
				<tilt>28.41643763422766</tilt>
				<range>2345.897294816864</range>
				<gx:altitudeMode>relativeToSeaFloor</gx:altitudeMode>
			</LookAt>
			<styleUrl>#m_ylw-pushpin</styleUrl>
			<Point>
				<gx:drawOrder>1</gx:drawOrder>
				<coordinates>-103.4926481384631,19.61451845491155,0</coordinates>
			</Point>
		</Placemark>
		<Placemark>
			<name>H44</name>
			<LookAt>
				<longitude>-103.4940504920087</longitude>
				<latitude>19.61199017860869</latitude>
				<altitude>0</altitude>
				<heading>-0.3264560654718522</heading>
				<tilt>27.09050576935417</tilt>
				<range>2317.748312570332</range>
				<gx:altitudeMode>relativeToSeaFloor</gx:altitudeMode>
			</LookAt>
			<styleUrl>#m_ylw-pushpin</styleUrl>
			<Point>
				<gx:drawOrder>1</gx:drawOrder>
				<coordinates>-103.4912288771512,19.61263647892398,0</coordinates>
			</Point>
		</Placemark>
		<Placemark>
			<name>H45</name>
			<LookAt>
				<longitude>-103.4929706728392</longitude>
				<latitude>19.61033268563092</latitude>
				<altitude>0</altitude>
				<heading>-0.3260937888260271</heading>
				<tilt>27.08809034560414</tilt>
				<range>1726.968950953392</range>
				<gx:altitudeMode>relativeToSeaFloor</gx:altitudeMode>
			</LookAt>
			<styleUrl>#m_ylw-pushpin</styleUrl>
			<Point>
				<gx:drawOrder>1</gx:drawOrder>
				<coordinates>-103.489216124793,19.60934749359883,0</coordinates>
			</Point>
		</Placemark>
		<Placemark>
			<name>H46</name>
			<LookAt>
				<longitude>-103.4929706728392</longitude>
				<latitude>19.61033268563092</latitude>
				<altitude>0</altitude>
				<heading>-0.3260937888260271</heading>
				<tilt>27.08809034560414</tilt>
				<range>1726.968950953392</range>
				<gx:altitudeMode>relativeToSeaFloor</gx:altitudeMode>
			</LookAt>
			<styleUrl>#m_ylw-pushpin</styleUrl>
			<Point>
				<gx:drawOrder>1</gx:drawOrder>
				<coordinates>-103.4902280275767,19.60942413443004,0</coordinates>
			</Point>
		</Placemark>
		<Placemark>
			<name>H47</name>
			<LookAt>
				<longitude>-103.4929706728392</longitude>
				<latitude>19.61033268563092</latitude>
				<altitude>0</altitude>
				<heading>-0.3260937888260271</heading>
				<tilt>27.08809034560414</tilt>
				<range>1726.968950953392</range>
				<gx:altitudeMode>relativeToSeaFloor</gx:altitudeMode>
			</LookAt>
			<styleUrl>#m_ylw-pushpin</styleUrl>
			<Point>
				<gx:drawOrder>1</gx:drawOrder>
				<coordinates>-103.4924523306077,19.60921557442716,0</coordinates>
			</Point>
		</Placemark>
		<Placemark>
			<name>H48</name>
			<LookAt>
				<longitude>-103.4947806181408</longitude>
				<latitude>19.60935626811408</latitude>
				<altitude>0</altitude>
				<heading>-0.3267080977489699</heading>
				<tilt>28.90635572867319</tilt>
				<range>1706.795899962717</range>
				<gx:altitudeMode>relativeToSeaFloor</gx:altitudeMode>
			</LookAt>
			<styleUrl>#m_ylw-pushpin</styleUrl>
			<Point>
				<gx:drawOrder>1</gx:drawOrder>
				<coordinates>-103.4951061797037,19.60806269214817,0</coordinates>
			</Point>
		</Placemark>
		<Placemark>
			<name>H49</name>
			<LookAt>
				<longitude>-103.5022564756254</longitude>
				<latitude>19.61357094481197</latitude>
				<altitude>0</altitude>
				<heading>-0.3287711314875763</heading>
				<tilt>25.78881735433926</tilt>
				<range>2840.598818203083</range>
				<gx:altitudeMode>relativeToSeaFloor</gx:altitudeMode>
			</LookAt>
			<styleUrl>#m_ylw-pushpin</styleUrl>
			<Point>
				<gx:drawOrder>1</gx:drawOrder>
				<coordinates>-103.4988105532358,19.61498262970927,0</coordinates>
			</Point>
		</Placemark>
		<Placemark>
			<name>H50</name>
			<LookAt>
				<longitude>-103.5022564756254</longitude>
				<latitude>19.61357094481197</latitude>
				<altitude>0</altitude>
				<heading>-0.3287711314875763</heading>
				<tilt>25.78881735433926</tilt>
				<range>2840.598818203083</range>
				<gx:altitudeMode>relativeToSeaFloor</gx:altitudeMode>
			</LookAt>
			<styleUrl>#m_ylw-pushpin</styleUrl>
			<Point>
				<gx:drawOrder>1</gx:drawOrder>
				<coordinates>-103.5061892246769,19.61011338081553,0</coordinates>
			</Point>
		</Placemark>
		<Placemark>
			<name>H51</name>
			<LookAt>
				<longitude>-103.5031631552682</longitude>
				<latitude>19.61499999085408</latitude>
				<altitude>0</altitude>
				<heading>-0.3290756139938784</heading>
				<tilt>25.78883016819762</tilt>
				<range>2843.878494120852</range>
				<gx:altitudeMode>relativeToSeaFloor</gx:altitudeMode>
			</LookAt>
			<styleUrl>#m_ylw-pushpin</styleUrl>
			<Point>
				<gx:drawOrder>1</gx:drawOrder>
				<coordinates>-103.5087860622131,19.61961236528353,0</coordinates>
			</Point>
		</Placemark>
		<Placemark>
			<name>H52</name>
			<LookAt>
				<longitude>-103.5015479733899</longitude>
				<latitude>19.62317880230775</latitude>
				<altitude>0</altitude>
				<heading>-0.3281900665601883</heading>
				<tilt>26.65761578566721</tilt>
				<range>1398.469664692003</range>
				<gx:altitudeMode>relativeToSeaFloor</gx:altitudeMode>
			</LookAt>
			<styleUrl>#m_ylw-pushpin</styleUrl>
			<Point>
				<gx:drawOrder>1</gx:drawOrder>
				<coordinates>-103.506858857131,19.62373074157903,0</coordinates>
			</Point>
		</Placemark>
		<Placemark>
			<name>H53</name>
			<LookAt>
				<longitude>-103.5022108140255</longitude>
				<latitude>19.62220012775737</latitude>
				<altitude>0</altitude>
				<heading>-0.3277919422538862</heading>
				<tilt>30.00313169575607</tilt>
				<range>697.4200694851013</range>
				<gx:altitudeMode>relativeToSeaFloor</gx:altitudeMode>
			</LookAt>
			<styleUrl>#m_ylw-pushpin</styleUrl>
			<Point>
				<gx:drawOrder>1</gx:drawOrder>
				<coordinates>-103.5039156451538,19.6220524419853,0</coordinates>
			</Point>
		</Placemark>
		<Placemark>
			<name>H54</name>
			<LookAt>
				<longitude>-103.5022108140255</longitude>
				<latitude>19.62220012775737</latitude>
				<altitude>0</altitude>
				<heading>-0.3277919422538862</heading>
				<tilt>30.00313169575607</tilt>
				<range>697.4200694851013</range>
				<gx:altitudeMode>relativeToSeaFloor</gx:altitudeMode>
			</LookAt>
			<styleUrl>#m_ylw-pushpin</styleUrl>
			<Point>
				<gx:drawOrder>1</gx:drawOrder>
				<coordinates>-103.5012333605017,19.621438862174,0</coordinates>
			</Point>
		</Placemark>
		<Placemark>
			<name>H55</name>
			<LookAt>
				<longitude>-103.5005773396312</longitude>
				<latitude>19.62223394433339</latitude>
				<altitude>0</altitude>
				<heading>-0.3275296279523734</heading>
				<tilt>27.91499050724602</tilt>
				<range>425.7721227642354</range>
				<gx:altitudeMode>relativeToSeaFloor</gx:altitudeMode>
			</LookAt>
			<styleUrl>#m_ylw-pushpin</styleUrl>
			<Point>
				<gx:drawOrder>1</gx:drawOrder>
				<coordinates>-103.4994749950378,19.62164911694436,0</coordinates>
			</Point>
		</Placemark>
		<Placemark>
			<name>H56</name>
			<LookAt>
				<longitude>-103.4972616233209</longitude>
				<latitude>19.61921532953394</latitude>
				<altitude>0</altitude>
				<heading>-0.3261121517174356</heading>
				<tilt>30.00163208417424</tilt>
				<range>363.4907061163142</range>
				<gx:altitudeMode>relativeToSeaFloor</gx:altitudeMode>
			</LookAt>
			<styleUrl>#m_ylw-pushpin</styleUrl>
			<Point>
				<gx:drawOrder>1</gx:drawOrder>
				<coordinates>-103.4972616233209,19.61921532953394,0</coordinates>
			</Point>
		</Placemark>
		<Placemark>
			<name>H57</name>
			<LookAt>
				<longitude>-103.4934821852423</longitude>
				<latitude>19.61812030578256</latitude>
				<altitude>0</altitude>
				<heading>-0.32484337954243</heading>
				<tilt>30.00685222301829</tilt>
				<range>1525.985077780236</range>
				<gx:altitudeMode>relativeToSeaFloor</gx:altitudeMode>
			</LookAt>
			<styleUrl>#m_ylw-pushpin</styleUrl>
			<Point>
				<gx:drawOrder>1</gx:drawOrder>
				<coordinates>-103.4950371159645,19.61897530908676,0</coordinates>
			</Point>
		</Placemark>
		<Placemark>
			<name>H58</name>
			<LookAt>
				<longitude>-103.4897650423546</longitude>
				<latitude>19.6212649464832</latitude>
				<altitude>0</altitude>
				<heading>-0.3240005479664514</heading>
				<tilt>27.45815978757782</tilt>
				<range>1496.274598178788</range>
				<gx:altitudeMode>relativeToSeaFloor</gx:altitudeMode>
			</LookAt>
			<styleUrl>#m_ylw-pushpin</styleUrl>
			<Point>
				<gx:drawOrder>1</gx:drawOrder>
				<coordinates>-103.4904304573702,19.62015890829346,0</coordinates>
			</Point>
		</Placemark>
		<Placemark>
			<name>H59</name>
			<LookAt>
				<longitude>-103.4874997098269</longitude>
				<latitude>19.62262778169363</latitude>
				<altitude>0</altitude>
				<heading>-0.3229775276413631</heading>
				<tilt>26.43858551270644</tilt>
				<range>1169.739980220181</range>
				<gx:altitudeMode>relativeToSeaFloor</gx:altitudeMode>
			</LookAt>
			<styleUrl>#m_ylw-pushpin</styleUrl>
			<Point>
				<gx:drawOrder>1</gx:drawOrder>
				<coordinates>-103.4865543693567,19.62171827008233,0</coordinates>
			</Point>
		</Placemark>
		<Placemark>
			<name>H60</name>
			<LookAt>
				<longitude>-103.4985919098701</longitude>
				<latitude>19.62595301997663</latitude>
				<altitude>0</altitude>
				<heading>-0.3260932849981006</heading>
				<tilt>30.00332713799046</tilt>
				<range>740.951934578512</range>
				<gx:altitudeMode>relativeToSeaFloor</gx:altitudeMode>
			</LookAt>
			<styleUrl>#m_ylw-pushpin</styleUrl>
			<Point>
				<gx:drawOrder>1</gx:drawOrder>
				<coordinates>-103.4983277084877,19.62410311838264,0</coordinates>
			</Point>
		</Placemark>
		<Placemark>
			<name>H61</name>
			<LookAt>
				<longitude>-103.4966882892999</longitude>
				<latitude>19.62663965521857</latitude>
				<altitude>0</altitude>
				<heading>-0.3263661472541773</heading>
				<tilt>22.67647030162316</tilt>
				<range>866.4263454200112</range>
				<gx:altitudeMode>relativeToSeaFloor</gx:altitudeMode>
			</LookAt>
			<styleUrl>#m_ylw-pushpin</styleUrl>
			<Point>
				<gx:drawOrder>1</gx:drawOrder>
				<coordinates>-103.4966882892999,19.62663965521857,0</coordinates>
			</Point>
		</Placemark>
		<Placemark>
			<name>H62</name>
			<LookAt>
				<longitude>-103.4932577462697</longitude>
				<latitude>19.62562529991853</latitude>
				<altitude>0</altitude>
				<heading>-0.3252139280254425</heading>
				<tilt>22.67649955140304</tilt>
				<range>874.8742931942367</range>
				<gx:altitudeMode>relativeToSeaFloor</gx:altitudeMode>
			</LookAt>
			<styleUrl>#m_ylw-pushpin</styleUrl>
			<Point>
				<gx:drawOrder>1</gx:drawOrder>
				<coordinates>-103.4923995903546,19.62574866158377,0</coordinates>
			</Point>
		</Placemark>
		<Placemark>
			<name>H63</name>
			<LookAt>
				<longitude>-103.4910321764961</longitude>
				<latitude>19.62941264393329</latitude>
				<altitude>0</altitude>
				<heading>-0.3234470238164737</heading>
				<tilt>31.14228491944501</tilt>
				<range>314.5862332782307</range>
				<gx:altitudeMode>relativeToSeaFloor</gx:altitudeMode>
			</LookAt>
			<styleUrl>#m_ylw-pushpin</styleUrl>
			<Point>
				<gx:drawOrder>1</gx:drawOrder>
				<coordinates>-103.4905956816595,19.62967479841514,0</coordinates>
			</Point>
		</Placemark>
		<Placemark>
			<name>H64</name>
			<LookAt>
				<longitude>-103.491125663597</longitude>
				<latitude>19.62692089555988</latitude>
				<altitude>0</altitude>
				<heading>-0.3234785250170771</heading>
				<tilt>31.1511866116856</tilt>
				<range>2231.27836906881</range>
				<gx:altitudeMode>relativeToSeaFloor</gx:altitudeMode>
			</LookAt>
			<styleUrl>#m_ylw-pushpin</styleUrl>
			<Point>
				<gx:drawOrder>1</gx:drawOrder>
				<coordinates>-103.4897338139707,19.62318042476388,0</coordinates>
			</Point>
		</Placemark>
		<Placemark>
			<name>H65</name>
			<LookAt>
				<longitude>-103.5011252318008</longitude>
				<latitude>19.62604851151983</latitude>
				<altitude>0</altitude>
				<heading>-0.3267112573630137</heading>
				<tilt>32.06929757557649</tilt>
				<range>1199.338664996682</range>
				<gx:altitudeMode>relativeToSeaFloor</gx:altitudeMode>
			</LookAt>
			<styleUrl>#m_ylw-pushpin</styleUrl>
			<Point>
				<gx:drawOrder>1</gx:drawOrder>
				<coordinates>-103.5006797215266,19.62549316602416,0</coordinates>
			</Point>
		</Placemark>
		<Placemark>
			<name>H66</name>
			<LookAt>
				<longitude>-103.5011252318008</longitude>
				<latitude>19.62604851151983</latitude>
				<altitude>0</altitude>
				<heading>-0.3267112573630137</heading>
				<tilt>32.06929757557649</tilt>
				<range>1199.338664996682</range>
				<gx:altitudeMode>relativeToSeaFloor</gx:altitudeMode>
			</LookAt>
			<styleUrl>#m_ylw-pushpin</styleUrl>
			<Point>
				<gx:drawOrder>1</gx:drawOrder>
				<coordinates>-103.5006843723593,19.62754606705777,0</coordinates>
			</Point>
		</Placemark>
		<Placemark>
			<name>H67</name>
			<LookAt>
				<longitude>-103.5009029758627</longitude>
				<latitude>19.63231672714902</latitude>
				<altitude>0</altitude>
				<heading>-0.3270095897609213</heading>
				<tilt>27.82034414914187</tilt>
				<range>1172.370366627826</range>
				<gx:altitudeMode>relativeToSeaFloor</gx:altitudeMode>
			</LookAt>
			<styleUrl>#m_ylw-pushpin</styleUrl>
			<Point>
				<gx:drawOrder>1</gx:drawOrder>
				<coordinates>-103.5006313932001,19.63204957316679,0</coordinates>
			</Point>
		</Placemark>
		<Placemark>
			<name>H68</name>
			<LookAt>
				<longitude>-103.5058754848357</longitude>
				<latitude>19.62463198627634</latitude>
				<altitude>0</altitude>
				<heading>-0.3286799355047815</heading>
				<tilt>27.82025631072492</tilt>
				<range>1151.413244090686</range>
				<gx:altitudeMode>relativeToSeaFloor</gx:altitudeMode>
			</LookAt>
			<styleUrl>#m_ylw-pushpin</styleUrl>
			<Point>
				<gx:drawOrder>1</gx:drawOrder>
				<coordinates>-103.5041222734758,19.62764543878409,0</coordinates>
			</Point>
		</Placemark>
		<Placemark>
			<name>H69</name>
			<LookAt>
				<longitude>-103.5058754848357</longitude>
				<latitude>19.62463198627634</latitude>
				<altitude>0</altitude>
				<heading>-0.3286799355047815</heading>
				<tilt>27.82025631072492</tilt>
				<range>1151.413244090686</range>
				<gx:altitudeMode>relativeToSeaFloor</gx:altitudeMode>
			</LookAt>
			<styleUrl>#m_ylw-pushpin</styleUrl>
			<Point>
				<gx:drawOrder>1</gx:drawOrder>
				<coordinates>-103.5088931720352,19.62326850459801,0</coordinates>
			</Point>
		</Placemark>
		<Placemark>
			<name>H70</name>
			<LookAt>
				<longitude>-103.5058754848357</longitude>
				<latitude>19.62463198627634</latitude>
				<altitude>0</altitude>
				<heading>-0.3286799355047815</heading>
				<tilt>27.82025631072492</tilt>
				<range>1151.413244090686</range>
				<gx:altitudeMode>relativeToSeaFloor</gx:altitudeMode>
			</LookAt>
			<styleUrl>#m_ylw-pushpin</styleUrl>
			<Point>
				<gx:drawOrder>1</gx:drawOrder>
				<coordinates>-103.5081728823758,19.6263645881459,0</coordinates>
			</Point>
		</Placemark>
		<Placemark>
			<name>H71</name>
			<LookAt>
				<longitude>-103.5102155151931</longitude>
				<latitude>19.62450176296377</latitude>
				<altitude>0</altitude>
				<heading>-0.3307363065153262</heading>
				<tilt>24.33729702411576</tilt>
				<range>1084.562458573432</range>
				<gx:altitudeMode>relativeToSeaFloor</gx:altitudeMode>
			</LookAt>
			<styleUrl>#m_ylw-pushpin</styleUrl>
			<Point>
				<gx:drawOrder>1</gx:drawOrder>
				<coordinates>-103.5108963687992,19.62298058031248,0</coordinates>
			</Point>
		</Placemark>
		<Placemark>
			<name>H72</name>
			<LookAt>
				<longitude>-103.5090392478358</longitude>
				<latitude>19.60689805779821</latitude>
				<altitude>0</altitude>
				<heading>-0.3293522459172503</heading>
				<tilt>30.00155008645038</tilt>
				<range>345.1459678389361</range>
				<gx:altitudeMode>relativeToSeaFloor</gx:altitudeMode>
			</LookAt>
			<styleUrl>#m_ylw-pushpin</styleUrl>
			<Point>
				<gx:drawOrder>1</gx:drawOrder>
				<coordinates>-103.5088436795277,19.60791996745303,0</coordinates>
			</Point>
		</Placemark>
		<Placemark>
			<name>H73</name>
			<LookAt>
				<longitude>-103.5115757169592</longitude>
				<latitude>19.60749682566443</latitude>
				<altitude>0</altitude>
				<heading>-0.3298397736536793</heading>
				<tilt>32.93876128036359</tilt>
				<range>516.6773383445524</range>
				<gx:altitudeMode>relativeToSeaFloor</gx:altitudeMode>
			</LookAt>
			<styleUrl>#m_ylw-pushpin</styleUrl>
			<Point>
				<gx:drawOrder>1</gx:drawOrder>
				<coordinates>-103.5119994427884,19.60688026534045,0</coordinates>
			</Point>
		</Placemark>
		<Placemark>
			<name>H74</name>
			<LookAt>
				<longitude>-103.5037436445671</longitude>
				<latitude>19.6048775215575</latitude>
				<altitude>0</altitude>
				<heading>-0.3283447450516745</heading>
				<tilt>27.04552909563468</tilt>
				<range>559.2604539227609</range>
				<gx:altitudeMode>relativeToSeaFloor</gx:altitudeMode>
			</LookAt>
			<styleUrl>#m_ylw-pushpin</styleUrl>
			<Point>
				<gx:drawOrder>1</gx:drawOrder>
				<coordinates>-103.5034448997359,19.60589173726333,0</coordinates>
			</Point>
		</Placemark>
		<Placemark>
			<name>H75</name>
			<LookAt>
				<longitude>-103.5027464414766</longitude>
				<latitude>19.6033368140625</latitude>
				<altitude>0</altitude>
				<heading>-0.3280101308192224</heading>
				<tilt>27.04554950324975</tilt>
				<range>564.2579719583368</range>
				<gx:altitudeMode>relativeToSeaFloor</gx:altitudeMode>
			</LookAt>
			<styleUrl>#m_ylw-pushpin</styleUrl>
			<Point>
				<gx:drawOrder>1</gx:drawOrder>
				<coordinates>-103.5022381720191,19.60306803601581,0</coordinates>
			</Point>
		</Placemark>
		<Placemark>
			<name>H76</name>
			<LookAt>
				<longitude>-103.5088019057338</longitude>
				<latitude>19.61533850057874</latitude>
				<altitude>0</altitude>
				<heading>-0.3292751528299038</heading>
				<tilt>30.00317444670083</tilt>
				<range>706.9342270535921</range>
				<gx:altitudeMode>relativeToSeaFloor</gx:altitudeMode>
			</LookAt>
			<styleUrl>#m_ylw-pushpin</styleUrl>
			<Point>
				<gx:drawOrder>1</gx:drawOrder>
				<coordinates>-103.5080848952479,19.61379750235326,0</coordinates>
			</Point>
		</Placemark>
		<Placemark>
			<name>H77</name>
			<LookAt>
				<longitude>-103.5099929424507</longitude>
				<latitude>19.61300111279444</latitude>
				<altitude>0</altitude>
				<heading>-0.3296749604823627</heading>
				<tilt>30.00306284300052</tilt>
				<range>682.0826267946325</range>
				<gx:altitudeMode>relativeToSeaFloor</gx:altitudeMode>
			</LookAt>
			<styleUrl>#m_ylw-pushpin</styleUrl>
			<Point>
				<gx:drawOrder>1</gx:drawOrder>
				<coordinates>-103.5100682060295,19.61346016192836,0</coordinates>
			</Point>
		</Placemark>
		<Placemark>
			<name>H78</name>
			<LookAt>
				<longitude>-103.5114050201968</longitude>
				<latitude>19.61464291721052</latitude>
				<altitude>0</altitude>
				<heading>-0.3301489871654016</heading>
				<tilt>30.00305956590861</tilt>
				<range>681.3529035198754</range>
				<gx:altitudeMode>relativeToSeaFloor</gx:altitudeMode>
			</LookAt>
			<styleUrl>#m_ylw-pushpin</styleUrl>
			<Point>
				<gx:drawOrder>1</gx:drawOrder>
				<coordinates>-103.5105722727903,19.61409204222733,0</coordinates>
			</Point>
		</Placemark>
		<Placemark>
			<name>H79</name>
			<LookAt>
				<longitude>-103.5132621102773</longitude>
				<latitude>19.61308299138588</latitude>
				<altitude>0</altitude>
				<heading>-0.3307723487529661</heading>
				<tilt>30.00295178371236</tilt>
				<range>657.3520493551478</range>
				<gx:altitudeMode>relativeToSeaFloor</gx:altitudeMode>
			</LookAt>
			<styleUrl>#m_ylw-pushpin</styleUrl>
			<Point>
				<gx:drawOrder>1</gx:drawOrder>
				<coordinates>-103.5123741788091,19.61353215599024,0</coordinates>
			</Point>
		</Placemark>
		<Placemark>
			<name>H80</name>
			<LookAt>
				<longitude>-103.5115975348238</longitude>
				<latitude>19.61786658304981</latitude>
				<altitude>0</altitude>
				<heading>-0.3302133877834241</heading>
				<tilt>30.00446211701352</tilt>
				<range>993.6971839475671</range>
				<gx:altitudeMode>relativeToSeaFloor</gx:altitudeMode>
			</LookAt>
			<styleUrl>#m_ylw-pushpin</styleUrl>
			<Point>
				<gx:drawOrder>1</gx:drawOrder>
				<coordinates>-103.5110620628573,19.61779554429717,0</coordinates>
			</Point>
		</Placemark>
		<Placemark>
			<name>H81</name>
			<LookAt>
				<longitude>-103.5148762309456</longitude>
				<latitude>19.62035903121654</latitude>
				<altitude>0</altitude>
				<heading>-0.331620081987467</heading>
				<tilt>26.96773045391578</tilt>
				<range>1202.526444508828</range>
				<gx:altitudeMode>relativeToSeaFloor</gx:altitudeMode>
			</LookAt>
			<styleUrl>#m_ylw-pushpin</styleUrl>
			<Point>
				<gx:drawOrder>1</gx:drawOrder>
				<coordinates>-103.513120060683,19.61991823018052,0</coordinates>
			</Point>
		</Placemark>
		<Placemark>
			<name>H82</name>
			<LookAt>
				<longitude>-103.5160521536896</longitude>
				<latitude>19.62131007387447</latitude>
				<altitude>0</altitude>
				<heading>-0.3316693049326599</heading>
				<tilt>30.00356010133166</tilt>
				<range>792.8966037182437</range>
				<gx:altitudeMode>relativeToSeaFloor</gx:altitudeMode>
			</LookAt>
			<styleUrl>#m_ylw-pushpin</styleUrl>
			<Point>
				<gx:drawOrder>1</gx:drawOrder>
				<coordinates>-103.514415855126,19.62073465959264,0</coordinates>
			</Point>
		</Placemark>
		<Placemark>
			<name>H83</name>
			<LookAt>
				<longitude>-103.5164018945066</longitude>
				<latitude>19.61807327754598</latitude>
				<altitude>0</altitude>
				<heading>-0.3317866604734608</heading>
				<tilt>30.00351665195056</tilt>
				<range>783.2215206222068</range>
				<gx:altitudeMode>relativeToSeaFloor</gx:altitudeMode>
			</LookAt>
			<styleUrl>#m_ylw-pushpin</styleUrl>
			<Point>
				<gx:drawOrder>1</gx:drawOrder>
				<coordinates>-103.5148556403709,19.61823643269025,0</coordinates>
			</Point>
		</Placemark>
		<Placemark>
			<name>H84</name>
			<LookAt>
				<longitude>-103.5175282154946</longitude>
				<latitude>19.61595030297128</latitude>
				<altitude>0</altitude>
				<heading>-0.332038082926364</heading>
				<tilt>31.27916465914118</tilt>
				<range>726.9756727588331</range>
				<gx:altitudeMode>relativeToSeaFloor</gx:altitudeMode>
			</LookAt>
			<styleUrl>#m_ylw-pushpin</styleUrl>
			<Point>
				<gx:drawOrder>1</gx:drawOrder>
				<coordinates>-103.5173207877669,19.61655830108952,0</coordinates>
			</Point>
		</Placemark>
		<Placemark>
			<name>H85</name>
			<LookAt>
				<longitude>-103.5175282154946</longitude>
				<latitude>19.61595030297128</latitude>
				<altitude>0</altitude>
				<heading>-0.332038082926364</heading>
				<tilt>31.27916465914118</tilt>
				<range>726.9756727588331</range>
				<gx:altitudeMode>relativeToSeaFloor</gx:altitudeMode>
			</LookAt>
			<styleUrl>#m_ylw-pushpin</styleUrl>
			<Point>
				<gx:drawOrder>1</gx:drawOrder>
				<coordinates>-103.515910301509,19.61530473873262,0</coordinates>
			</Point>
		</Placemark>
		<Placemark>
			<name>H86</name>
			<LookAt>
				<longitude>-103.5182231145833</longitude>
				<latitude>19.61202461423365</latitude>
				<altitude>0</altitude>
				<heading>-0.3322711659608957</heading>
				<tilt>31.27900485970079</tilt>
				<range>692.7047373563699</range>
				<gx:altitudeMode>relativeToSeaFloor</gx:altitudeMode>
			</LookAt>
			<styleUrl>#m_ylw-pushpin</styleUrl>
			<Point>
				<gx:drawOrder>1</gx:drawOrder>
				<coordinates>-103.5176299849256,19.6126488644727,0</coordinates>
			</Point>
		</Placemark>
		<Placemark>
			<name>H87</name>
			<LookAt>
				<longitude>-103.5145840388958</longitude>
				<latitude>19.60982069645</latitude>
				<altitude>0</altitude>
				<heading>-0.3310497199227025</heading>
				<tilt>31.27909711901528</tilt>
				<range>712.4910004343668</range>
				<gx:altitudeMode>relativeToSeaFloor</gx:altitudeMode>
			</LookAt>
			<styleUrl>#m_ylw-pushpin</styleUrl>
			<Point>
				<gx:drawOrder>1</gx:drawOrder>
				<coordinates>-103.5147577998847,19.61074534974949,0</coordinates>
			</Point>
		</Placemark>
		<Placemark>
			<name>H88</name>
			<LookAt>
				<longitude>-103.5203688055682</longitude>
				<latitude>19.60809126368201</latitude>
				<altitude>0</altitude>
				<heading>-0.3329909444930228</heading>
				<tilt>31.27877579471438</tilt>
				<range>643.5784520662004</range>
				<gx:altitudeMode>relativeToSeaFloor</gx:altitudeMode>
			</LookAt>
			<styleUrl>#m_ylw-pushpin</styleUrl>
			<Point>
				<gx:drawOrder>1</gx:drawOrder>
				<coordinates>-103.51816450361,19.60922824229959,0</coordinates>
			</Point>
		</Placemark>
		<Placemark>
			<name>H89</name>
			<LookAt>
				<longitude>-103.5244461146296</longitude>
				<latitude>19.60925979168292</latitude>
				<altitude>0</altitude>
				<heading>42.59685780707935</heading>
				<tilt>47.50372107406674</tilt>
				<range>283.9329916186277</range>
				<gx:altitudeMode>relativeToSeaFloor</gx:altitudeMode>
			</LookAt>
			<styleUrl>#m_ylw-pushpin</styleUrl>
			<Point>
				<gx:drawOrder>1</gx:drawOrder>
				<coordinates>-103.5241137226966,19.60972792389859,0</coordinates>
			</Point>
		</Placemark>
		<Placemark>
			<name>H90</name>
			<LookAt>
				<longitude>-103.5256171638404</longitude>
				<latitude>19.60910749129453</latitude>
				<altitude>0</altitude>
				<heading>42.59646480522925</heading>
				<tilt>47.50352475875047</tilt>
				<range>254.2848926763637</range>
				<gx:altitudeMode>relativeToSeaFloor</gx:altitudeMode>
			</LookAt>
			<styleUrl>#m_ylw-pushpin</styleUrl>
			<Point>
				<gx:drawOrder>1</gx:drawOrder>
				<coordinates>-103.5257551584595,19.60887219704412,0</coordinates>
			</Point>
		</Placemark>
		<Placemark>
			<name>H91</name>
			<LookAt>
				<longitude>-103.5226798738245</longitude>
				<latitude>19.60809531869879</latitude>
				<altitude>0</altitude>
				<heading>42.59738824351017</heading>
				<tilt>43.23059425885629</tilt>
				<range>803.7204491924513</range>
				<gx:altitudeMode>relativeToSeaFloor</gx:altitudeMode>
			</LookAt>
			<styleUrl>#m_ylw-pushpin</styleUrl>
			<Point>
				<gx:drawOrder>1</gx:drawOrder>
				<coordinates>-103.5233747651936,19.6076221074036,0</coordinates>
			</Point>
		</Placemark>
		<Placemark>
			<name>H92</name>
			<LookAt>
				<longitude>-103.5228233607045</longitude>
				<latitude>19.60588888359548</latitude>
				<altitude>0</altitude>
				<heading>42.59734013653449</heading>
				<tilt>43.23067989306249</tilt>
				<range>817.6422572396807</range>
				<gx:altitudeMode>relativeToSeaFloor</gx:altitudeMode>
			</LookAt>
			<styleUrl>#m_ylw-pushpin</styleUrl>
			<Point>
				<gx:drawOrder>1</gx:drawOrder>
				<coordinates>-103.5215470361636,19.60560940953978,0</coordinates>
			</Point>
		</Placemark>
		<Placemark>
			<name>H93</name>
			<LookAt>
				<longitude>-103.5266218480021</longitude>
				<latitude>19.60316486392322</latitude>
				<altitude>0</altitude>
				<heading>42.597968624499</heading>
				<tilt>54.72523954658645</tilt>
				<range>1030.429653372938</range>
				<gx:altitudeMode>relativeToSeaFloor</gx:altitudeMode>
			</LookAt>
			<styleUrl>#m_ylw-pushpin</styleUrl>
			<Point>
				<gx:drawOrder>1</gx:drawOrder>
				<coordinates>-103.526896999217,19.60208824925957,0</coordinates>
			</Point>
		</Placemark>
		<Placemark>
			<name>H94</name>
			<LookAt>
				<longitude>-103.5185062549096</longitude>
				<latitude>19.60440195177993</latitude>
				<altitude>0</altitude>
				<heading>42.60069127084452</heading>
				<tilt>54.72638167851135</tilt>
				<range>1186.210618657031</range>
				<gx:altitudeMode>relativeToSeaFloor</gx:altitudeMode>
			</LookAt>
			<styleUrl>#m_ylw-pushpin</styleUrl>
			<Point>
				<gx:drawOrder>1</gx:drawOrder>
				<coordinates>-103.5219082769416,19.60248937810072,0</coordinates>
			</Point>
		</Placemark>
		<Placemark>
			<name>H95</name>
			<LookAt>
				<longitude>-103.5183609858804</longitude>
				<latitude>19.60379003045462</latitude>
				<altitude>0</altitude>
				<heading>42.60073994912219</heading>
				<tilt>54.72638851870708</tilt>
				<range>1187.143523548882</range>
				<gx:altitudeMode>relativeToSeaFloor</gx:altitudeMode>
			</LookAt>
			<styleUrl>#m_ylw-pushpin</styleUrl>
			<Point>
				<gx:drawOrder>1</gx:drawOrder>
				<coordinates>-103.5188596816631,19.60312115256844,0</coordinates>
			</Point>
		</Placemark>
		<Placemark>
			<name>H96</name>
			<LookAt>
				<longitude>-103.5189427420835</longitude>
				<latitude>19.6052076635778</latitude>
				<altitude>0</altitude>
				<heading>42.60055730694192</heading>
				<tilt>58.14351736500865</tilt>
				<range>429.2003904776337</range>
				<gx:altitudeMode>relativeToSeaFloor</gx:altitudeMode>
			</LookAt>
			<styleUrl>#m_ylw-pushpin</styleUrl>
			<Point>
				<gx:drawOrder>1</gx:drawOrder>
				<coordinates>-103.520077159053,19.60407294309323,0</coordinates>
			</Point>
		</Placemark>
		<Placemark>
			<name>H97</name>
			<LookAt>
				<longitude>-103.5198088773714</longitude>
				<latitude>19.60590299075938</latitude>
				<altitude>0</altitude>
				<heading>42.60027686682156</heading>
				<tilt>54.19643692247937</tilt>
				<range>318.3860432437585</range>
				<gx:altitudeMode>relativeToSeaFloor</gx:altitudeMode>
			</LookAt>
			<styleUrl>#m_ylw-pushpin</styleUrl>
			<Point>
				<gx:drawOrder>1</gx:drawOrder>
				<coordinates>-103.5194188749723,19.60595122525007,0</coordinates>
			</Point>
		</Placemark>
		<Placemark>
			<name>H98</name>
			<LookAt>
				<longitude>-103.5142614362374</longitude>
				<latitude>19.60785318305076</latitude>
				<altitude>0</altitude>
				<heading>42.60216212400826</heading>
				<tilt>52.29622386221183</tilt>
				<range>1004.820378612774</range>
				<gx:altitudeMode>relativeToSeaFloor</gx:altitudeMode>
			</LookAt>
			<styleUrl>#m_ylw-pushpin</styleUrl>
			<Point>
				<gx:drawOrder>1</gx:drawOrder>
				<coordinates>-103.514985563467,19.60823320763247,0</coordinates>
			</Point>
		</Placemark>
		<Placemark>
			<name>H99</name>
			<LookAt>
				<longitude>-103.514374772572</longitude>
				<latitude>19.60495573379067</latitude>
				<altitude>0</altitude>
				<heading>42.60214030331812</heading>
				<tilt>50.56726161696675</tilt>
				<range>1456.498491499932</range>
				<gx:altitudeMode>relativeToSeaFloor</gx:altitudeMode>
			</LookAt>
			<styleUrl>#m_ylw-pushpin</styleUrl>
			<Point>
				<gx:drawOrder>1</gx:drawOrder>
				<coordinates>-103.5158544085341,19.60388855172959,0</coordinates>
			</Point>
		</Placemark>
		<Placemark>
			<name>H100</name>
			<LookAt>
				<longitude>-103.4973753227494</longitude>
				<latitude>19.63861754800254</latitude>
				<altitude>0</altitude>
				<heading>42.60841446287403</heading>
				<tilt>42.51622589701129</tilt>
				<range>1516.266297673741</range>
				<gx:altitudeMode>relativeToSeaFloor</gx:altitudeMode>
			</LookAt>
			<styleUrl>#m_ylw-pushpin</styleUrl>
			<Point>
				<gx:drawOrder>1</gx:drawOrder>
				<coordinates>-103.5003223970978,19.6382574968776,0</coordinates>
			</Point>
		</Placemark>
		<atom:link rel="app" href="https://www.google.com/earth/about/versions/#earth-pro" title="Google Earth Pro 7.3.7.1155"></atom:link>
	</Folder>
</Document>
</kml>
